{
"type": "FeatureCollection",
"name": "Grocery_Store_Locations",
"crs": { "type": "name", "properties": { "name": "urn:ogc:def:crs:OGC:1.3:CRS84" } },
"features": [
{ "type": "Feature", "properties": { "STORENAME": "Safeway", "ADDRESS": "5545 CONNECTICUT AVENUE NW", "ZIPCODE": 20015, "PHONE": 2022446097, "WARD": "Ward 3", "SSL": "1867    0092", "NOTES": " ", "PRESENT90": "No", "PRESENT95": "Yes", "PRESENT00": "Yes", "PRESENT05": "Yes", "PRESENT08": "Yes", "PRESENT09": "Yes", "PRESENT10": "Yes", "PRESENT11": "Yes", "PRESENT12": "Yes", "PRESENT13": "Yes", "PRESENT14": "Yes", "PRESENT15": "Yes", "PRESENT16": "Yes", "PRESENT17": "Yes", "PRESENT18": "Yes", "PRESENT22": "Yes", "PRESENT23": "Yes", "PRESENT24": "Yes", "PRESENT25": "Yes", "XCOORD": 393508.13, "YCOORD": 144078.34, "MAR_ID": 263999, "SE_ANNO_CAD_DATA": null, "GLOBALID": "{902F540E-FE16-43A5-8010-CD84E94B28B7}", "CREATED": "2022-09-28T22:04:54Z", "EDITED": "2025-01-14T19:33:19Z", "OBJECTID": 645 }, "geometry": { "type": "Point", "coordinates": [ -77.074909665314806, 38.964600719783377 ] } },
{ "type": "Feature", "properties": { "STORENAME": "Safeway", "ADDRESS": "1747 COLUMBIA ROAD NW", "ZIPCODE": 20009, "PHONE": 2026670774, "WARD": "Ward 1", "SSL": "2580    0512", "NOTES": " ", "PRESENT90": "Yes", "PRESENT95": "Yes", "PRESENT00": "Yes", "PRESENT05": "Yes", "PRESENT08": "Yes", "PRESENT09": "Yes", "PRESENT10": "Yes", "PRESENT11": "Yes", "PRESENT12": "Yes", "PRESENT13": "Yes", "PRESENT14": "Yes", "PRESENT15": "Yes", "PRESENT16": "Yes", "PRESENT17": "Yes", "PRESENT18": "Yes", "PRESENT22": "Yes", "PRESENT23": "Yes", "PRESENT24": "Yes", "PRESENT25": "Yes", "XCOORD": 396445.44, "YCOORD": 139593.32, "MAR_ID": 284083, "SE_ANNO_CAD_DATA": null, "GLOBALID": "{7C1459D3-4205-465C-8589-CDC4A462B587}", "CREATED": "2022-09-28T22:04:54Z", "EDITED": "2025-01-14T19:33:19Z", "OBJECTID": 667 }, "geometry": { "type": "Point", "coordinates": [ -77.040993862799866, 38.924215183487071 ] } },
{ "type": "Feature", "properties": { "STORENAME": "Safeway", "ADDRESS": "4865 MACARTHUR BOULEVARD NW", "ZIPCODE": 20007, "PHONE": 2023375649, "WARD": "Ward 3", "SSL": "1389    0025", "NOTES": " ", "PRESENT90": "No", "PRESENT95": "Yes", "PRESENT00": "Yes", "PRESENT05": "Yes", "PRESENT08": "Yes", "PRESENT09": "Yes", "PRESENT10": "Yes", "PRESENT11": "Yes", "PRESENT12": "Yes", "PRESENT13": "Yes", "PRESENT14": "Yes", "PRESENT15": "Yes", "PRESENT16": "Yes", "PRESENT17": "Yes", "PRESENT18": "Yes", "PRESENT22": "No", "PRESENT23": "No", "PRESENT24": "No", "PRESENT25": "No", "XCOORD": 391678.11, "YCOORD": 138844.95, "MAR_ID": 285004, "SE_ANNO_CAD_DATA": null, "GLOBALID": "{B781FF71-032E-4647-86D6-214D329796D9}", "CREATED": "2022-09-28T22:04:54Z", "EDITED": "2025-01-14T19:33:19Z", "OBJECTID": 676 }, "geometry": { "type": "Point", "coordinates": [ -77.095962125168782, 38.917441408410909 ] } },
{ "type": "Feature", "properties": { "STORENAME": "Safeway", "ADDRESS": "1855 WISCONSIN AVENUE NW", "ZIPCODE": 20007, "PHONE": 2023333223, "WARD": "Ward 2", "SSL": "1299    1040", "NOTES": " ", "PRESENT90": "Yes", "PRESENT95": "No", "PRESENT00": "No", "PRESENT05": "Yes", "PRESENT08": "Yes", "PRESENT09": "Yes", "PRESENT10": "Yes", "PRESENT11": "Yes", "PRESENT12": "Yes", "PRESENT13": "Yes", "PRESENT14": "Yes", "PRESENT15": "Yes", "PRESENT16": "Yes", "PRESENT17": "Yes", "PRESENT18": "Yes", "PRESENT22": "Yes", "PRESENT23": "Yes", "PRESENT24": "Yes", "PRESENT25": "Yes", "XCOORD": 394141.03, "YCOORD": 138696.71, "MAR_ID": 224665, "SE_ANNO_CAD_DATA": null, "GLOBALID": "{152A7BF1-F352-41DA-8C39-350BB15C9DA0}", "CREATED": "2022-09-28T22:04:54Z", "EDITED": "2025-01-14T19:33:19Z", "OBJECTID": 679 }, "geometry": { "type": "Point", "coordinates": [ -77.067560912637333, 38.91612588552244 ] } },
{ "type": "Feature", "properties": { "STORENAME": "Safeway", "ADDRESS": "1701 CORCORAN STREET NW", "ZIPCODE": 20009, "PHONE": 2026676825, "WARD": "Ward 2", "SSL": "0155    0231", "NOTES": " ", "PRESENT90": "Yes", "PRESENT95": "Yes", "PRESENT00": "Yes", "PRESENT05": "Yes", "PRESENT08": "Yes", "PRESENT09": "Yes", "PRESENT10": "Yes", "PRESENT11": "Yes", "PRESENT12": "Yes", "PRESENT13": "Yes", "PRESENT14": "Yes", "PRESENT15": "Yes", "PRESENT16": "Yes", "PRESENT17": "Yes", "PRESENT18": "Yes", "PRESENT22": "Yes", "PRESENT23": "Yes", "PRESENT24": "Yes", "PRESENT25": "Yes", "XCOORD": 396621.59, "YCOORD": 138243.64, "MAR_ID": 241699, "SE_ANNO_CAD_DATA": null, "GLOBALID": "{490DC6A4-034E-4AF9-ACD1-569A11F60998}", "CREATED": "2022-09-28T22:04:54Z", "EDITED": "2025-01-14T19:33:19Z", "OBJECTID": 682 }, "geometry": { "type": "Point", "coordinates": [ -77.038955827994485, 38.912057515959049 ] } },
{ "type": "Feature", "properties": { "STORENAME": "Safeway", "ADDRESS": "1601 MARYLAND AVENUE NE", "ZIPCODE": 20002, "PHONE": 2023986903, "WARD": "Ward 5", "SSL": "4493    0001", "NOTES": " ", "PRESENT90": "No", "PRESENT95": "No", "PRESENT00": "Yes", "PRESENT05": "Yes", "PRESENT08": "Yes", "PRESENT09": "Yes", "PRESENT10": "Yes", "PRESENT11": "Yes", "PRESENT12": "Yes", "PRESENT13": "Yes", "PRESENT14": "Yes", "PRESENT15": "Yes", "PRESENT16": "Yes", "PRESENT17": "Yes", "PRESENT18": "Yes", "PRESENT22": "Yes", "PRESENT23": "Yes", "PRESENT24": "Yes", "PRESENT25": "Yes", "XCOORD": 401754.81, "YCOORD": 136968.47, "MAR_ID": 297814, "SE_ANNO_CAD_DATA": null, "GLOBALID": "{494D49F3-9C9B-470E-B1F8-9C98DF9A7C02}", "CREATED": "2022-09-28T22:04:54Z", "EDITED": "2025-01-14T19:33:19Z", "OBJECTID": 695 }, "geometry": { "type": "Point", "coordinates": [ -76.979772316624405, 38.900575082088778 ] } },
{ "type": "Feature", "properties": { "STORENAME": "Safeway", "ADDRESS": "415 14TH STREET SE", "ZIPCODE": 20003, "PHONE": 2025474333, "WARD": "Ward 6", "SSL": "1042    0829", "NOTES": " ", "PRESENT90": "Yes", "PRESENT95": "Yes", "PRESENT00": "Yes", "PRESENT05": "Yes", "PRESENT08": "Yes", "PRESENT09": "Yes", "PRESENT10": "Yes", "PRESENT11": "Yes", "PRESENT12": "Yes", "PRESENT13": "Yes", "PRESENT14": "Yes", "PRESENT15": "Yes", "PRESENT16": "Yes", "PRESENT17": "Yes", "PRESENT18": "Yes", "PRESENT22": "Yes", "PRESENT23": "Yes", "PRESENT24": "Yes", "PRESENT25": "Yes", "XCOORD": 401167.04, "YCOORD": 135078.34, "MAR_ID": 26239, "SE_ANNO_CAD_DATA": null, "GLOBALID": "{359C10E9-C72A-4432-B4FB-D7E3E217154C}", "CREATED": "2022-09-28T22:04:54Z", "EDITED": "2025-01-14T19:33:19Z", "OBJECTID": 701 }, "geometry": { "type": "Point", "coordinates": [ -76.986551508030303, 38.883549062855472 ] } },
{ "type": "Feature", "properties": { "STORENAME": "Safeway", "ADDRESS": "1100 4TH STREET SW", "ZIPCODE": 20024, "PHONE": 2025549155, "WARD": "Ward 6", "SSL": "0542    0872", "NOTES": " ", "PRESENT90": "No", "PRESENT95": "Yes", "PRESENT00": "Yes", "PRESENT05": "Yes", "PRESENT08": "Yes", "PRESENT09": "Yes", "PRESENT10": "Yes", "PRESENT11": "Yes", "PRESENT12": "Yes", "PRESENT13": "Yes", "PRESENT14": "Yes", "PRESENT15": "Yes", "PRESENT16": "Yes", "PRESENT17": "Yes", "PRESENT18": "Yes", "PRESENT22": "Yes", "PRESENT23": "Yes", "PRESENT24": "Yes", "PRESENT25": "Yes", "XCOORD": 398511.05, "YCOORD": 134420.39, "MAR_ID": 307170, "SE_ANNO_CAD_DATA": null, "GLOBALID": "{A30D0370-6C3A-4079-9F2C-2EF7B5627C78}", "CREATED": "2022-09-28T22:04:54Z", "EDITED": "2025-01-14T19:33:19Z", "OBJECTID": 705 }, "geometry": { "type": "Point", "coordinates": [ -77.017161805343676, 38.877621504691113 ] } },
{ "type": "Feature", "properties": { "STORENAME": "Safeway", "ADDRESS": "2845 ALABAMA AVENUE SE", "ZIPCODE": 20020, "PHONE": 2025757525, "WARD": "Ward 7", "SSL": "5642    0001", "NOTES": " ", "PRESENT90": "No", "PRESENT95": "No", "PRESENT00": "Yes", "PRESENT05": "Yes", "PRESENT08": "Yes", "PRESENT09": "Yes", "PRESENT10": "Yes", "PRESENT11": "Yes", "PRESENT12": "Yes", "PRESENT13": "Yes", "PRESENT14": "Yes", "PRESENT15": "Yes", "PRESENT16": "Yes", "PRESENT17": "Yes", "PRESENT18": "Yes", "PRESENT22": "Yes", "PRESENT23": "Yes", "PRESENT24": "Yes", "PRESENT25": "Yes", "XCOORD": 402892.75, "YCOORD": 132357.23, "MAR_ID": 278282, "SE_ANNO_CAD_DATA": null, "GLOBALID": "{A3BFCCAD-8C29-4BF5-91D7-A33915402BCF}", "CREATED": "2022-09-28T22:04:54Z", "EDITED": "2025-01-14T19:33:19Z", "OBJECTID": 707 }, "geometry": { "type": "Point", "coordinates": [ -76.966673223138443, 38.859032219035655 ] } },
{ "type": "Feature", "properties": { "STORENAME": "Safeway", "ADDRESS": "6500 PINEY BRANCH ROAD NW", "ZIPCODE": 20012, "PHONE": 2027235644, "WARD": "Ward 4", "SSL": "2974    0020", "NOTES": " ", "PRESENT90": "No", "PRESENT95": "No", "PRESENT00": "Yes", "PRESENT05": "Yes", "PRESENT08": "Yes", "PRESENT09": "Yes", "PRESENT10": "Yes", "PRESENT11": "Yes", "PRESENT12": "Yes", "PRESENT13": "Yes", "PRESENT14": "Yes", "PRESENT15": "Yes", "PRESENT16": "Yes", "PRESENT17": "Yes", "PRESENT18": "Yes", "PRESENT22": "Yes", "PRESENT23": "Yes", "PRESENT24": "Yes", "PRESENT25": "Yes", "XCOORD": 397699.34, "YCOORD": 144623.03, "MAR_ID": 285341, "SE_ANNO_CAD_DATA": null, "GLOBALID": "{61779AAC-DFDE-4952-9C2E-9CF5BC9DEEF2}", "CREATED": "2022-09-28T22:04:54Z", "EDITED": "2025-01-14T19:33:19Z", "OBJECTID": 709 }, "geometry": { "type": "Point", "coordinates": [ -77.026550610396427, 38.969528402684411 ] } },
{ "type": "Feature", "properties": { "STORENAME": "Safeway", "ADDRESS": "4203 DAVENPORT STREET NW", "ZIPCODE": 20016, "PHONE": 2023640290, "WARD": "Ward 3", "SSL": "1672    0815", "NOTES": " ", "PRESENT90": "Yes", "PRESENT95": "Yes", "PRESENT00": "Yes", "PRESENT05": "Yes", "PRESENT08": "Yes", "PRESENT09": "Yes", "PRESENT10": "Yes", "PRESENT11": "Yes", "PRESENT12": "Yes", "PRESENT13": "Yes", "PRESENT14": "Yes", "PRESENT15": "No", "PRESENT16": "No", "PRESENT17": "No", "PRESENT18": "No", "PRESENT22": "No", "PRESENT23": "No", "PRESENT24": "No", "PRESENT25": "No", "XCOORD": 392852.16, "YCOORD": 142717.87, "MAR_ID": 301160, "SE_ANNO_CAD_DATA": null, "GLOBALID": "{89BCAD9B-90E3-49D3-B89A-BE1A35447D76}", "CREATED": "2022-09-28T22:04:54Z", "EDITED": "2025-01-14T19:33:19Z", "OBJECTID": 710 }, "geometry": { "type": "Point", "coordinates": [ -77.082464497539618, 38.952340161558688 ] } },
{ "type": "Feature", "properties": { "STORENAME": "Safeway", "ADDRESS": "3830 GEORGIA AVENUE NW", "ZIPCODE": 20011, "PHONE": 2028821140, "WARD": "Ward 4", "SSL": "2905    0814", "NOTES": " ", "PRESENT90": "Yes", "PRESENT95": "Yes", "PRESENT00": "Yes", "PRESENT05": "Yes", "PRESENT08": "Yes", "PRESENT09": "Yes", "PRESENT10": "Yes", "PRESENT11": "Yes", "PRESENT12": "Yes", "PRESENT13": "Yes", "PRESENT14": "Yes", "PRESENT15": "Yes", "PRESENT16": "Yes", "PRESENT17": "Yes", "PRESENT18": "Yes", "PRESENT22": "Yes", "PRESENT23": "Yes", "PRESENT24": "Yes", "PRESENT25": "Yes", "XCOORD": 397845.01, "YCOORD": 141173.71, "MAR_ID": 225076, "SE_ANNO_CAD_DATA": null, "GLOBALID": "{CE7A30D3-A0A7-4E3E-8C33-94EF828CF35D}", "CREATED": "2022-09-28T22:04:54Z", "EDITED": "2025-01-14T19:33:19Z", "OBJECTID": 711 }, "geometry": { "type": "Point", "coordinates": [ -77.024858831662655, 38.938456370779363 ] } },
{ "type": "Feature", "properties": { "STORENAME": "Safeway", "ADDRESS": "490 L STREET NW", "ZIPCODE": 20001, "PHONE": 2027192435, "WARD": "Ward 6", "SSL": "0515    0158", "NOTES": "Mt. Vernon Square", "PRESENT90": "No", "PRESENT95": "No", "PRESENT00": "No", "PRESENT05": "No", "PRESENT08": "Yes", "PRESENT09": "Yes", "PRESENT10": "Yes", "PRESENT11": "Yes", "PRESENT12": "Yes", "PRESENT13": "Yes", "PRESENT14": "Yes", "PRESENT15": "Yes", "PRESENT16": "Yes", "PRESENT17": "Yes", "PRESENT18": "Yes", "PRESENT22": "Yes", "PRESENT23": "Yes", "PRESENT24": "Yes", "PRESENT25": "Yes", "XCOORD": 398408.1, "YCOORD": 137292.77, "MAR_ID": 304767, "SE_ANNO_CAD_DATA": null, "GLOBALID": "{009CF7A2-1951-4C57-8BB0-903A0D541736}", "CREATED": "2022-09-28T22:04:54Z", "EDITED": "2025-01-14T19:33:19Z", "OBJECTID": 717 }, "geometry": { "type": "Point", "coordinates": [ -77.018354905875725, 38.903496800891674 ] } },
{ "type": "Feature", "properties": { "STORENAME": "Safeway", "ADDRESS": "322 40TH STREET NE", "ZIPCODE": 20019, "PHONE": 2023972802, "WARD": "Ward 7", "SSL": "5051N   0840", "NOTES": " ", "PRESENT90": "Yes", "PRESENT95": "Yes", "PRESENT00": "Yes", "PRESENT05": "Yes", "PRESENT08": "Yes", "PRESENT09": "Yes", "PRESENT10": "Yes", "PRESENT11": "Yes", "PRESENT12": "Yes", "PRESENT13": "Yes", "PRESENT14": "Yes", "PRESENT15": "Yes", "PRESENT16": "Yes", "PRESENT17": "Yes", "PRESENT18": "Yes", "PRESENT22": "Yes", "PRESENT23": "Yes", "PRESENT24": "Yes", "PRESENT25": "Yes", "XCOORD": 404558.4, "YCOORD": 136144.21, "MAR_ID": 295141, "SE_ANNO_CAD_DATA": null, "GLOBALID": "{DE137DF5-10A3-4008-852F-F1AD1DDB40AC}", "CREATED": "2022-09-28T22:04:54Z", "EDITED": "2025-01-14T19:33:19Z", "OBJECTID": 718 }, "geometry": { "type": "Point", "coordinates": [ -76.947457197059492, 38.893139781622168 ] } }
]
}
