{
"type": "FeatureCollection",
"name": "osm_douro_overpass",
"crs": { "type": "name", "properties": { "name": "urn:ogc:def:crs:OGC:1.3:CRS84" } },
"features": [
{ "type": "Feature", "properties": { "id": 48135544, "name": "Río Duero - Rio Douro", "waterway": "river" }, "geometry": { "type": "LineString", "coordinates": [ [ -6.480069, 41.2940852 ], [ -6.4808436, 41.2940479 ], [ -6.4812961, 41.2938725 ], [ -6.482161, 41.2935374 ], [ -6.4857767, 41.2919475 ], [ -6.4871044, 41.2910524 ], [ -6.4884319, 41.2901265 ], [ -6.4901102, 41.2885248 ], [ -6.4902478, 41.2882983 ], [ -6.491314, 41.2865427 ], [ -6.4913556, 41.2862249 ], [ -6.4915006, 41.285118 ], [ -6.4907294, 41.2841948 ], [ -6.4906874, 41.2839423 ], [ -6.4903328, 41.2834971 ], [ -6.489339, 41.2831009 ], [ -6.4886327, 41.2825045 ], [ -6.4879953, 41.2821157 ], [ -6.4869229, 41.2816364 ], [ -6.4833686, 41.2802983 ], [ -6.4820443, 41.2793188 ], [ -6.4805679, 41.2785329 ], [ -6.4792521, 41.2776346 ], [ -6.4783285, 41.2762936 ], [ -6.4789508, 41.2749642 ], [ -6.479927, 41.2739157 ], [ -6.4809334, 41.2732736 ], [ -6.4823248, 41.2725342 ], [ -6.4851975, 41.2715697 ], [ -6.4879385, 41.2705149 ], [ -6.4914411, 41.2693301 ], [ -6.4933803, 41.2684416 ], [ -6.4951614, 41.2670776 ], [ -6.4962272, 41.2663291 ], [ -6.4986971, 41.265398 ], [ -6.4990962, 41.2652476 ], [ -6.5002473, 41.2653437 ], [ -6.5021733, 41.2655824 ], [ -6.5050714, 41.2654986 ], [ -6.5074342, 41.2647579 ], [ -6.5088628, 41.2642605 ], [ -6.5103046, 41.2640077 ], [ -6.5123445, 41.2648521 ], [ -6.5130068, 41.2654055 ], [ -6.5135354, 41.2662593 ], [ -6.5139055, 41.2670537 ], [ -6.5144795, 41.2699608 ], [ -6.5153597, 41.2718114 ], [ -6.5163059, 41.273107 ], [ -6.5167453, 41.2737261 ], [ -6.5180387, 41.2746493 ], [ -6.5193325, 41.2751638 ], [ -6.5219013, 41.2758473 ], [ -6.5224096, 41.2756574 ], [ -6.5227575, 41.2753442 ], [ -6.5235107, 41.2731117 ], [ -6.5242312, 41.2719187 ], [ -6.526244, 41.2700534 ], [ -6.5297747, 41.2675748 ], [ -6.5333687, 41.2652389 ], [ -6.5349926, 41.2642813 ], [ -6.5398926, 41.2612714 ], [ -6.5422307, 41.2601569 ], [ -6.5445449, 41.2596167 ], [ -6.5453071, 41.2592209 ], [ -6.5466629, 41.2585168 ], [ -6.5476336, 41.2572317 ], [ -6.5479433, 41.2559049 ], [ -6.5481223, 41.253794 ], [ -6.5498084, 41.250262 ], [ -6.5501507, 41.2496921 ], [ -6.5507996, 41.2469026 ], [ -6.5518508, 41.2456005 ], [ -6.5534082, 41.2446797 ], [ -6.5561604, 41.2439696 ], [ -6.5609297, 41.2435306 ], [ -6.5635691, 41.2433378 ], [ -6.5670896, 41.2426543 ], [ -6.5677806, 41.2420354 ], [ -6.5686409, 41.2409997 ], [ -6.5707349, 41.2392028 ], [ -6.5710161, 41.2390176 ], [ -6.5732359, 41.2389769 ], [ -6.5775939, 41.2387491 ], [ -6.5800644, 41.23892 ], [ -6.5818475, 41.2396975 ], [ -6.5832303, 41.2405643 ], [ -6.5836495, 41.240827 ], [ -6.5848292, 41.2415664 ], [ -6.5860711, 41.2442203 ], [ -6.5863549, 41.245055 ], [ -6.5870365, 41.2470599 ], [ -6.5860711, 41.2496412 ], [ -6.5860318, 41.2512693 ], [ -6.5870952, 41.2530786 ], [ -6.5893962, 41.254647 ], [ -6.5912751, 41.2551616 ], [ -6.5923107, 41.2552383 ], [ -6.5927829, 41.2551699 ], [ -6.5929267, 41.2551476 ], [ -6.5934866, 41.2549231 ], [ -6.5945427, 41.2537509 ], [ -6.5958967, 41.2516575 ], [ -6.5965199, 41.2468907 ], [ -6.5967935, 41.2458851 ], [ -6.5974653, 41.2447766 ], [ -6.598608, 41.2436564 ], [ -6.5996769, 41.2434645 ], [ -6.6013435, 41.2438037 ], [ -6.6032756, 41.2451078 ], [ -6.6053814, 41.2485288 ], [ -6.6067058, 41.2492374 ], [ -6.6084243, 41.2494125 ], [ -6.6086545, 41.2494147 ], [ -6.610388, 41.2494315 ], [ -6.6152535, 41.2478343 ], [ -6.6194471, 41.2477546 ], [ -6.6209552, 41.2473173 ], [ -6.6259655, 41.2436954 ], [ -6.6287386, 41.2427118 ], [ -6.6291642, 41.2426938 ], [ -6.6296945, 41.2426714 ], [ -6.6332317, 41.2436268 ], [ -6.635077, 41.2438527 ], [ -6.6362246, 41.2443224 ], [ -6.6414918, 41.247832 ], [ -6.6438535, 41.248258 ], [ -6.6466537, 41.2481609 ], [ -6.6476813, 41.2478865 ], [ -6.6481494, 41.2477615 ], [ -6.6492655, 41.2462873 ], [ -6.6507656, 41.2430218 ], [ -6.6510894, 41.2416249 ], [ -6.6519019, 41.2371572 ], [ -6.6529451, 41.2353703 ], [ -6.6536685, 41.2350329 ], [ -6.6567955, 41.2341518 ], [ -6.6578114, 41.2345198 ], [ -6.6605599, 41.2339032 ], [ -6.6630543, 41.2321551 ], [ -6.6668239, 41.2276879 ], [ -6.6679535, 41.2265349 ], [ -6.6712602, 41.2229618 ], [ -6.6757037, 41.2211627 ], [ -6.677003, 41.2206367 ], [ -6.6799168, 41.2199463 ], [ -6.6821446, 41.2158388 ], [ -6.6828554, 41.2145283 ], [ -6.685564, 41.2118484 ], [ -6.6868897, 41.2114957 ], [ -6.6877192, 41.2113828 ], [ -6.6881744, 41.2112802 ], [ -6.6884438, 41.2111266 ], [ -6.6894229, 41.210858 ], [ -6.6901424, 41.2106983 ], [ -6.6909267, 41.2102027 ], [ -6.69159, 41.2094618 ], [ -6.6917633, 41.2086272 ], [ -6.6917992, 41.207965 ], [ -6.6914555, 41.2070851 ], [ -6.6910964, 41.2065726 ], [ -6.6909033, 41.206389 ], [ -6.6905104, 41.2057211 ], [ -6.6887938, 41.2040744 ], [ -6.6884491, 41.203515 ], [ -6.6882752, 41.2027297 ], [ -6.6883148, 41.2022897 ], [ -6.6896597, 41.1979311 ], [ -6.6908074, 41.1955301 ], [ -6.6923405, 41.1930992 ], [ -6.6929683, 41.1929394 ], [ -6.6985938, 41.1930458 ], [ -6.6993465, 41.1924982 ], [ -6.6993116, 41.1920153 ], [ -6.699013, 41.1914243 ], [ -6.6970818, 41.1895835 ], [ -6.6967781, 41.188694 ], [ -6.6966069, 41.1881928 ], [ -6.6977452, 41.1840178 ], [ -6.6993558, 41.1820739 ], [ -6.7007497, 41.1808665 ], [ -6.7013921, 41.1803101 ], [ -6.7042554, 41.1789986 ], [ -6.706432, 41.1783034 ], [ -6.7084681, 41.1771268 ], [ -6.7088487, 41.175796 ], [ -6.7080976, 41.1741809 ], [ -6.708486, 41.1733746 ], [ -6.7085043, 41.1733366 ], [ -6.7091388, 41.172637 ], [ -6.7141275, 41.1693653 ], [ -6.7159273, 41.1682723 ], [ -6.7202757, 41.1656316 ], [ -6.7248318, 41.1642366 ], [ -6.726742, 41.1638081 ], [ -6.7269747, 41.1637559 ], [ -6.7291826, 41.1628232 ], [ -6.7298891, 41.1621956 ], [ -6.7307595, 41.1615859 ], [ -6.7319126, 41.1604449 ], [ -6.732784, 41.1596245 ], [ -6.7376249, 41.1550667 ], [ -6.7401301, 41.1498157 ], [ -6.7404126, 41.1494349 ], [ -6.7412824, 41.1482623 ], [ -6.7450814, 41.1470971 ], [ -6.7455169, 41.146685 ], [ -6.7477834, 41.1445954 ], [ -6.7509064, 41.1421642 ], [ -6.7535713, 41.1399159 ], [ -6.7548604, 41.1396037 ], [ -6.7584191, 41.1393288 ], [ -6.7590452, 41.1390558 ], [ -6.7616806, 41.1379067 ], [ -6.7619202, 41.1377864 ], [ -6.7637406, 41.1368724 ], [ -6.7644832, 41.1362572 ], [ -6.7658216, 41.1351484 ], [ -6.7671738, 41.1340281 ], [ -6.7675436, 41.1337098 ], [ -6.7695771, 41.1319594 ], [ -6.7696529, 41.1316771 ], [ -6.770971, 41.1294117 ], [ -6.7710184, 41.1263999 ], [ -6.7707308, 41.1240813 ], [ -6.7685178, 41.1221648 ], [ -6.7672567, 41.120196 ], [ -6.7663963, 41.1191655 ], [ -6.7650095, 41.1175044 ], [ -6.7647706, 41.1172182 ], [ -6.7611817, 41.1132252 ], [ -6.7604951, 41.110206 ], [ -6.7598024, 41.1083199 ], [ -6.758447, 41.1065218 ], [ -6.7584191, 41.1064834 ] ] } },
{ "type": "Feature", "properties": { "id": 137059117, "name": "Río Duero - Rio Douro", "waterway": "river" }, "geometry": { "type": "LineString", "coordinates": [ [ -6.8084779, 41.0454962 ], [ -6.8098169, 41.043635 ], [ -6.8088879, 41.0420379 ], [ -6.8083552, 41.041403 ], [ -6.8077408, 41.0404278 ], [ -6.8077776, 41.0390054 ], [ -6.8078734, 41.0377771 ], [ -6.8089619, 41.0364406 ], [ -6.8100392, 41.0361344 ], [ -6.811152, 41.0358876 ], [ -6.8122732, 41.0356368 ], [ -6.8133878, 41.0353222 ], [ -6.8142981, 41.0348822 ], [ -6.8171158, 41.0334099 ], [ -6.8194511, 41.0324948 ], [ -6.8206578, 41.0321642 ], [ -6.8218055, 41.0316591 ], [ -6.8241154, 41.0312844 ], [ -6.8262011, 41.0309025 ], [ -6.8280592, 41.0305623 ], [ -6.83435, 41.028417 ], [ -6.8352347, 41.0281153 ], [ -6.83704, 41.0279241 ], [ -6.8390977, 41.0281455 ], [ -6.8410335, 41.0277235 ], [ -6.8450477, 41.0272907 ], [ -6.8467713, 41.0272739 ], [ -6.8498045, 41.0272443 ], [ -6.8542757, 41.0275942 ], [ -6.8545353, 41.0276145 ], [ -6.8573109, 41.0273859 ], [ -6.8581921, 41.0273133 ], [ -6.8601689, 41.0272328 ], [ -6.8622742, 41.0271471 ], [ -6.8632204, 41.0272112 ], [ -6.864352, 41.0270178 ], [ -6.8651808, 41.0267882 ], [ -6.8662224, 41.0264996 ], [ -6.8675817, 41.0266674 ], [ -6.8693486, 41.0268854 ], [ -6.8700561, 41.0270487 ], [ -6.8727408, 41.0276683 ], [ -6.8757121, 41.0277215 ], [ -6.8801948, 41.028469 ], [ -6.8810345, 41.028609 ], [ -6.8857083, 41.0300323 ], [ -6.8897615, 41.0312666 ], [ -6.8906115, 41.0315254 ], [ -6.8943122, 41.0322187 ], [ -6.8948899, 41.0323269 ], [ -6.8970923, 41.0327397 ], [ -6.9010558, 41.0334825 ], [ -6.9025784, 41.0337679 ], [ -6.9053077, 41.0348278 ], [ -6.9074638, 41.0362983 ], [ -6.9094348, 41.0371011 ], [ -6.9111977, 41.0375064 ], [ -6.9151942, 41.038544 ], [ -6.9185791, 41.0369884 ], [ -6.9206391, 41.035931 ], [ -6.9230423, 41.0338808 ], [ -6.9245873, 41.0325859 ], [ -6.9271622, 41.031291 ], [ -6.9299088, 41.0297371 ], [ -6.9313345, 41.0293969 ] ] } },
{ "type": "Feature", "properties": { "id": 293975309, "name": "Rio Douro", "waterway": "river" }, "geometry": { "type": "LineString", "coordinates": [ [ -6.9313345, 41.0293969 ], [ -6.9339961, 41.0293285 ], [ -6.934464, 41.0292339 ] ] } },
{ "type": "Feature", "properties": { "id": 298767709, "name": "Rio Douro", "waterway": "river" }, "geometry": { "type": "LineString", "coordinates": [ [ -6.994699, 41.0329965 ], [ -6.9947383, 41.0330742 ], [ -6.9950332, 41.0338896 ], [ -6.9955243, 41.0347812 ], [ -6.996244, 41.0354206 ], [ -6.9969764, 41.0359653 ], [ -6.998009, 41.0366226 ], [ -6.9994036, 41.0372534 ], [ -7.0006647, 41.0370651 ], [ -7.0024688, 41.0364801 ], [ -7.0036575, 41.0364458 ], [ -7.0053119, 41.0371793 ], [ -7.0076302, 41.0389017 ], [ -7.009643, 41.0401964 ], [ -7.0104906, 41.0407416 ], [ -7.0115976, 41.0411808 ], [ -7.0126419, 41.0413452 ], [ -7.0143309, 41.0410406 ], [ -7.0156242, 41.0404645 ], [ -7.017727, 41.0393785 ], [ -7.0188359, 41.038939 ], [ -7.0198521, 41.0387085 ], [ -7.0205213, 41.0385957 ], [ -7.0225367, 41.0384854 ], [ -7.0239238, 41.0383586 ], [ -7.025069, 41.0381713 ], [ -7.0255188, 41.0381384 ], [ -7.02679, 41.0381714 ], [ -7.0275135, 41.0382828 ], [ -7.02891, 41.0387106 ], [ -7.0293681, 41.0389089 ], [ -7.0301812, 41.0392059 ], [ -7.0310181, 41.0395666 ] ] } },
{ "type": "Feature", "properties": { "id": 298767719, "name": "Rio Douro", "waterway": "river" }, "geometry": { "type": "LineString", "coordinates": [ [ -7.2895783, 41.1370685 ], [ -7.2899562, 41.1371736 ], [ -7.2909916, 41.1374945 ], [ -7.2927419, 41.1381505 ], [ -7.2928402, 41.1382609 ], [ -7.2940766, 41.1386914 ], [ -7.2957351, 41.139114 ], [ -7.296512, 41.1393545 ], [ -7.2967983, 41.1394078 ], [ -7.2969279, 41.1394076 ], [ -7.2977833, 41.1395104 ], [ -7.2980487, 41.1395191 ], [ -7.2999959, 41.1394982 ], [ -7.3013164, 41.1393864 ], [ -7.3037048, 41.1393862 ], [ -7.3040307, 41.1394209 ], [ -7.3045559, 41.1395852 ] ] } },
{ "type": "Feature", "properties": { "id": 298767722, "name": "Rio Douro", "waterway": "river" }, "geometry": { "type": "LineString", "coordinates": [ [ -7.11416, 41.1537347 ], [ -7.1141045, 41.1539811 ], [ -7.1139881, 41.1556821 ], [ -7.114047, 41.1570746 ], [ -7.1141691, 41.1577265 ], [ -7.1144528, 41.158739 ], [ -7.1144818, 41.1597508 ], [ -7.1144491, 41.1602747 ], [ -7.1142068, 41.1610888 ], [ -7.1139083, 41.1615789 ], [ -7.113726, 41.1620955 ], [ -7.1133496, 41.1628114 ], [ -7.1129445, 41.163827 ], [ -7.1128998, 41.1641704 ], [ -7.1128178, 41.165202 ], [ -7.1128778, 41.166113 ], [ -7.1130275, 41.1667452 ], [ -7.1131072, 41.1676085 ], [ -7.1134605, 41.1693722 ], [ -7.1134858, 41.1711223 ], [ -7.1134685, 41.1715692 ], [ -7.113219, 41.172701 ], [ -7.1127834, 41.1754603 ], [ -7.1127522, 41.1758914 ], [ -7.1127806, 41.1760735 ] ] } },
{ "type": "Feature", "properties": { "id": 298767726, "name": "Rio Douro", "waterway": "river" }, "geometry": { "type": "LineString", "coordinates": [ [ -7.1127806, 41.1760735 ], [ -7.1128802, 41.1761443 ], [ -7.1140679, 41.1774209 ], [ -7.1148714, 41.1779365 ], [ -7.1168795, 41.1790147 ], [ -7.1173533, 41.1791971 ], [ -7.1180018, 41.179336 ], [ -7.1184756, 41.1793126 ], [ -7.1201225, 41.1790624 ], [ -7.1214853, 41.1787119 ], [ -7.1218658, 41.17855 ], [ -7.1228116, 41.1780218 ], [ -7.1241623, 41.1774501 ], [ -7.1243231, 41.177382 ], [ -7.1248864, 41.1770729 ], [ -7.1256524, 41.1762141 ], [ -7.1266417, 41.174344 ], [ -7.1267944, 41.173642 ], [ -7.1269994, 41.1726995 ], [ -7.1272421, 41.1719002 ], [ -7.1274625, 41.1701698 ], [ -7.1278354, 41.1681109 ], [ -7.1280356, 41.1675125 ], [ -7.12819, 41.1663008 ], [ -7.128357, 41.165773 ], [ -7.1291286, 41.164441 ], [ -7.1292956, 41.1640362 ], [ -7.1293636, 41.1639255 ], [ -7.1294129, 41.1638774 ], [ -7.1294802, 41.1638232 ], [ -7.1311088, 41.1618176 ] ] } },
{ "type": "Feature", "properties": { "id": 298767730, "name": "Rio Douro", "waterway": "river" }, "geometry": { "type": "LineString", "coordinates": [ [ -7.2304765, 41.1387121 ], [ -7.230503, 41.1387458 ], [ -7.231257, 41.1390558 ], [ -7.2323027, 41.1396893 ], [ -7.2325974, 41.1398848 ], [ -7.2350747, 41.1408157 ], [ -7.2357732, 41.1410122 ], [ -7.237827, 41.1413771 ], [ -7.2395036, 41.1417709 ], [ -7.2398709, 41.1418572 ], [ -7.2422944, 41.1428536 ], [ -7.2463053, 41.1443198 ], [ -7.2495077, 41.1449808 ], [ -7.250912, 41.1449935 ], [ -7.2515511, 41.1449849 ], [ -7.2542992, 41.1448271 ], [ -7.2563836, 41.144455 ], [ -7.2568718, 41.1444464 ], [ -7.2576041, 41.1443276 ], [ -7.2590224, 41.1440976 ], [ -7.2627018, 41.1433913 ], [ -7.2647322, 41.1431644 ], [ -7.2669405, 41.1427372 ], [ -7.2687366, 41.1423021 ], [ -7.2719645, 41.1411211 ], [ -7.2726827, 41.1407913 ], [ -7.2742891, 41.140173 ], [ -7.2752253, 41.139705 ], [ -7.2773102, 41.1383952 ], [ -7.2779909, 41.1377908 ], [ -7.2788117, 41.1369103 ], [ -7.2790599, 41.1366665 ], [ -7.2807876, 41.1357363 ], [ -7.2814765, 41.1355034 ], [ -7.2828881, 41.1354752 ], [ -7.2843553, 41.135735 ], [ -7.2862198, 41.1361503 ], [ -7.2879195, 41.1366444 ], [ -7.2895783, 41.1370685 ] ] } },
{ "type": "Feature", "properties": { "id": 298767734, "name": "Rio Douro", "waterway": "river" }, "geometry": { "type": "LineString", "coordinates": [ [ -7.1196236, 41.1345921 ], [ -7.1208802, 41.1343954 ], [ -7.121794, 41.1343204 ], [ -7.1223622, 41.1343231 ], [ -7.1245347, 41.1344552 ], [ -7.1255407, 41.1346005 ], [ -7.1263673, 41.1347718 ], [ -7.1265624, 41.1348546 ], [ -7.1272824, 41.1351604 ], [ -7.1278817, 41.1355436 ], [ -7.1284879, 41.1360356 ], [ -7.1294288, 41.1371653 ], [ -7.1296225, 41.1372495 ], [ -7.1301442, 41.1376553 ], [ -7.1304783, 41.1390304 ], [ -7.1305715, 41.1397821 ], [ -7.130359, 41.1413151 ], [ -7.1302308, 41.1417985 ], [ -7.129875, 41.1425524 ], [ -7.1281893, 41.1443275 ], [ -7.1279706, 41.1445158 ], [ -7.1273374, 41.1448927 ], [ -7.1267402, 41.1450951 ], [ -7.1263232, 41.1451762 ], [ -7.125265, 41.1452549 ], [ -7.1247403, 41.1453304 ], [ -7.1226474, 41.1457411 ], [ -7.1202699, 41.146393 ], [ -7.1192733, 41.1467751 ], [ -7.1182797, 41.1472539 ], [ -7.1169827, 41.148069 ], [ -7.116615, 41.1483557 ], [ -7.1161083, 41.1489149 ], [ -7.1156928, 41.1492567 ], [ -7.1150913, 41.1500714 ], [ -7.1148047, 41.1505759 ], [ -7.1146736, 41.1508414 ], [ -7.1143945, 41.1520916 ], [ -7.11416, 41.1537347 ] ] } },
{ "type": "Feature", "properties": { "id": 298767742, "name": "Rio Douro", "waterway": "river" }, "geometry": { "type": "LineString", "coordinates": [ [ -7.2237118, 41.1363376 ], [ -7.2240472, 41.1364668 ], [ -7.2246239, 41.1365268 ], [ -7.2260176, 41.1368383 ], [ -7.2270576, 41.1371976 ], [ -7.2291749, 41.1380218 ], [ -7.2299519, 41.1384339 ], [ -7.2304765, 41.1387121 ] ] } },
{ "type": "Feature", "properties": { "id": 298767744, "name": "Rio Douro", "waterway": "river" }, "geometry": { "type": "LineString", "coordinates": [ [ -7.1367035, 41.1593119 ], [ -7.1397683, 41.1583718 ], [ -7.14284, 41.1576423 ], [ -7.1437769, 41.1574494 ], [ -7.1446663, 41.1573259 ], [ -7.1461973, 41.1569192 ], [ -7.1472545, 41.1565763 ], [ -7.1475284, 41.1564874 ], [ -7.1479836, 41.1562535 ], [ -7.148429, 41.1559225 ], [ -7.1487995, 41.1556074 ], [ -7.1492911, 41.1551893 ], [ -7.1501273, 41.1544133 ], [ -7.1504893, 41.1540119 ], [ -7.1509596, 41.1533462 ], [ -7.1520015, 41.1516083 ], [ -7.154293, 41.1484227 ], [ -7.1556428, 41.1466694 ], [ -7.1575763, 41.1446261 ], [ -7.1584931, 41.143433 ], [ -7.1587226, 41.143016 ], [ -7.1599053, 41.1402106 ], [ -7.1603324, 41.1391975 ], [ -7.1606338, 41.1376424 ], [ -7.1605951, 41.1362127 ], [ -7.1605779, 41.1355798 ], [ -7.1606751, 41.1351462 ], [ -7.1606982, 41.1346866 ], [ -7.160161, 41.1315923 ], [ -7.1601204, 41.1306359 ], [ -7.1601462, 41.1303258 ], [ -7.1605286, 41.1288445 ], [ -7.1611602, 41.1277099 ], [ -7.1614785, 41.1273953 ], [ -7.162155, 41.1269567 ], [ -7.1637407, 41.126118 ], [ -7.1641612, 41.1260352 ], [ -7.1646462, 41.1259967 ], [ -7.1655752, 41.1259229 ], [ -7.1664073, 41.1259272 ], [ -7.1666465, 41.1259488 ], [ -7.167905, 41.1261456 ], [ -7.1686048, 41.1263081 ], [ -7.1704886, 41.1268883 ], [ -7.1712553, 41.1270655 ], [ -7.1726693, 41.1272709 ], [ -7.1734824, 41.1273151 ], [ -7.1742071, 41.1272826 ], [ -7.1778597, 41.1269043 ], [ -7.1797362, 41.1267617 ], [ -7.184599, 41.126178 ], [ -7.1871948, 41.1260555 ], [ -7.1880689, 41.1260719 ], [ -7.1892435, 41.1261448 ], [ -7.1907308, 41.126322 ], [ -7.1912618, 41.1263853 ], [ -7.1926563, 41.1266319 ], [ -7.1947737, 41.1271604 ], [ -7.1950646, 41.127233 ], [ -7.1963802, 41.1276973 ], [ -7.1972572, 41.12808 ], [ -7.198269, 41.1286777 ], [ -7.1989315, 41.1292557 ], [ -7.1994529, 41.1298778 ], [ -7.2001578, 41.1308727 ], [ -7.2006594, 41.1314255 ], [ -7.2010909, 41.1319988 ], [ -7.2013149, 41.1324496 ], [ -7.201704, 41.1328093 ], [ -7.2030092, 41.133675 ], [ -7.2038961, 41.134097 ], [ -7.2062555, 41.1350287 ], [ -7.2081849, 41.1355876 ], [ -7.2091992, 41.1360257 ], [ -7.2111806, 41.1362908 ], [ -7.2114694, 41.1362934 ], [ -7.2166605, 41.136212 ], [ -7.2182395, 41.1360442 ], [ -7.2206424, 41.1360122 ], [ -7.2218639, 41.1360537 ], [ -7.2237118, 41.1363376 ] ] } },
{ "type": "Feature", "properties": { "id": 299681032, "name": "Rio Douro", "waterway": "river" }, "geometry": { "type": "LineString", "coordinates": [ [ -7.1357796, 41.1595445 ], [ -7.1367035, 41.1593119 ] ] } },
{ "type": "Feature", "properties": { "id": 299681033, "name": "Rio Douro", "waterway": "river" }, "geometry": { "type": "LineString", "coordinates": [ [ -6.934464, 41.0292339 ], [ -6.935573, 41.0291437 ], [ -6.936811, 41.0290287 ], [ -6.938492, 41.0290093 ], [ -6.939054, 41.0290258 ], [ -6.9398871, 41.0290502 ], [ -6.9450424, 41.029623 ], [ -6.9468873, 41.0296859 ], [ -6.9493332, 41.0298714 ], [ -6.950903, 41.0299904 ], [ -6.954157, 41.0302371 ], [ -6.9562235, 41.0305356 ], [ -6.9580081, 41.0308543 ], [ -6.9594496, 41.0312241 ], [ -6.9610106, 41.0318075 ], [ -6.9622061, 41.0326617 ], [ -6.9626582, 41.0331359 ], [ -6.9633278, 41.0339614 ], [ -6.9636347, 41.0343397 ], [ -6.9641164, 41.0348376 ], [ -6.9647417, 41.035372 ], [ -6.9655814, 41.0359004 ], [ -6.9664019, 41.0361518 ], [ -6.9680821, 41.0363585 ], [ -6.9689765, 41.0362995 ], [ -6.9707821, 41.0361042 ], [ -6.9717778, 41.0358246 ], [ -6.97371, 41.0349186 ], [ -6.9748904, 41.0342417 ], [ -6.975937, 41.0335535 ], [ -6.9770898, 41.0326785 ], [ -6.9779442, 41.0317799 ], [ -6.9797756, 41.0296105 ], [ -6.9819187, 41.0274775 ], [ -6.9825213, 41.0269319 ], [ -6.9827171, 41.0267768 ], [ -6.9834458, 41.0261997 ], [ -6.98454, 41.0255961 ], [ -6.9857163, 41.0250358 ], [ -6.9873724, 41.0245809 ], [ -6.9889702, 41.0244882 ], [ -6.9904827, 41.0245947 ], [ -6.9919256, 41.0249514 ], [ -6.9931953, 41.0255056 ], [ -6.9937806, 41.0259586 ], [ -6.9945267, 41.0267221 ], [ -6.9950169, 41.0275019 ], [ -6.9951466, 41.0282958 ], [ -6.9948332, 41.0291969 ], [ -6.9942836, 41.0304966 ], [ -6.9940689, 41.0315741 ], [ -6.994699, 41.0329965 ] ] } },
{ "type": "Feature", "properties": { "id": 299681034, "name": "Rio Douro", "waterway": "river" }, "geometry": { "type": "LineString", "coordinates": [ [ -7.1311088, 41.1618176 ], [ -7.1313353, 41.160885 ], [ -7.1318046, 41.1603053 ], [ -7.1326259, 41.1596538 ], [ -7.1341365, 41.1595324 ], [ -7.1357796, 41.1595445 ] ] } },
{ "type": "Feature", "properties": { "id": 299681035, "name": "Rio Douro", "waterway": "river" }, "geometry": { "type": "LineString", "coordinates": [ [ -7.0310181, 41.0395666 ], [ -7.0314751, 41.0397755 ], [ -7.0317535, 41.0399126 ], [ -7.0322347, 41.0401838 ], [ -7.0322591, 41.0402169 ], [ -7.032837, 41.0405041 ], [ -7.0335018, 41.0407991 ], [ -7.0353539, 41.0415046 ], [ -7.0360869, 41.0417838 ], [ -7.0411561, 41.0434686 ], [ -7.042717, 41.0439268 ], [ -7.043574, 41.0442681 ], [ -7.0473686, 41.0465117 ], [ -7.0476886, 41.0466859 ], [ -7.0491059, 41.0474575 ], [ -7.0495015, 41.0476728 ], [ -7.0498396, 41.0479363 ], [ -7.0505103, 41.048626 ], [ -7.0506359, 41.0488166 ], [ -7.05097, 41.0493234 ], [ -7.0513263, 41.0501595 ], [ -7.0514538, 41.0506804 ], [ -7.0514745, 41.0514147 ], [ -7.0508433, 41.053061 ], [ -7.0506166, 41.0539851 ], [ -7.050664, 41.0544309 ], [ -7.0507062, 41.0548271 ], [ -7.0508999, 41.05585 ], [ -7.0510553, 41.0566179 ], [ -7.0512672, 41.057233 ], [ -7.0515399, 41.0576473 ], [ -7.0518549, 41.0579116 ], [ -7.052382, 41.0583156 ], [ -7.0528021, 41.0586375 ], [ -7.0556088, 41.0607886 ], [ -7.0556447, 41.0608162 ], [ -7.0563456, 41.0613534 ], [ -7.0582899, 41.0629725 ], [ -7.0590019, 41.0633223 ], [ -7.0607882, 41.0641999 ], [ -7.0612071, 41.0644057 ], [ -7.0613944, 41.0644977 ], [ -7.0637916, 41.0656042 ], [ -7.0644099, 41.0658896 ], [ -7.0674248, 41.0669833 ], [ -7.0680469, 41.067209 ], [ -7.0692214, 41.0676854 ], [ -7.0706381, 41.0682599 ], [ -7.0716422, 41.0687875 ], [ -7.0735176, 41.0697729 ], [ -7.0741069, 41.0701871 ], [ -7.0754742, 41.0709687 ], [ -7.0759286, 41.0712847 ], [ -7.0764947, 41.0716784 ], [ -7.076967, 41.0719558 ], [ -7.0788145, 41.0730409 ], [ -7.0795395, 41.0733686 ], [ -7.0820487, 41.0743259 ], [ -7.0831877, 41.074849 ], [ -7.083827, 41.0751007 ], [ -7.0865549, 41.0757988 ], [ -7.0884286, 41.0760521 ], [ -7.0906348, 41.0765403 ], [ -7.0921685, 41.0770997 ], [ -7.0940484, 41.0776208 ], [ -7.0943734, 41.0777372 ], [ -7.0947094, 41.0778189 ], [ -7.0979659, 41.0786107 ], [ -7.0980574, 41.078633 ], [ -7.0999309, 41.0792666 ], [ -7.1013112, 41.0799109 ], [ -7.102078, 41.0805786 ], [ -7.1025135, 41.0811192 ], [ -7.1029028, 41.0817267 ], [ -7.1034139, 41.0825242 ], [ -7.1039537, 41.0835768 ], [ -7.1042264, 41.0842866 ], [ -7.1047154, 41.0855595 ], [ -7.1050196, 41.086496 ], [ -7.1053063, 41.0879769 ], [ -7.1053157, 41.0884742 ], [ -7.1056455, 41.0911831 ], [ -7.1056003, 41.0917463 ], [ -7.1051611, 41.0935862 ], [ -7.1048816, 41.0952398 ], [ -7.1048053, 41.095409 ], [ -7.1045295, 41.0960204 ], [ -7.1039294, 41.0970926 ], [ -7.1034387, 41.0984802 ], [ -7.1031071, 41.1004381 ], [ -7.1030315, 41.1008842 ], [ -7.1026221, 41.1039515 ], [ -7.1024438, 41.1046199 ], [ -7.1021547, 41.1051752 ], [ -7.1013318, 41.1059678 ], [ -7.1000763, 41.1067703 ], [ -7.0989291, 41.1073958 ], [ -7.097441, 41.1082071 ], [ -7.0968818, 41.108512 ], [ -7.0959565, 41.1091255 ], [ -7.0951558, 41.1097292 ], [ -7.0944032, 41.1103758 ], [ -7.0930678, 41.1117509 ], [ -7.0917672, 41.1136903 ], [ -7.0910935, 41.1146948 ], [ -7.0897716, 41.1162717 ], [ -7.0866477, 41.1194045 ], [ -7.0862252, 41.1198282 ], [ -7.0856747, 41.1204118 ], [ -7.0852318, 41.1210513 ], [ -7.0844564, 41.122385 ], [ -7.0840526, 41.1235102 ], [ -7.08392, 41.1245267 ], [ -7.0838679, 41.1256967 ], [ -7.0841713, 41.1274651 ], [ -7.08429, 41.1278916 ], [ -7.0849056, 41.1292446 ], [ -7.0854766, 41.1299762 ], [ -7.0856025, 41.1301375 ] ] } },
{ "type": "Feature", "properties": { "id": 503716092, "name": "Rio Douro", "waterway": "river" }, "geometry": { "type": "LineString", "coordinates": [ [ -7.115508, 41.1359079 ], [ -7.1161205, 41.1358275 ], [ -7.1166743, 41.135684 ], [ -7.1186364, 41.1350214 ], [ -7.1196236, 41.1345921 ] ] } },
{ "type": "Feature", "properties": { "id": 503716094, "name": "Rio Douro", "waterway": "river" }, "geometry": { "type": "LineString", "coordinates": [ [ -7.1163154, 41.1349837 ], [ -7.1169989, 41.1349384 ], [ -7.1182833, 41.1348019 ], [ -7.1196236, 41.1345921 ] ] } },
{ "type": "Feature", "properties": { "id": 503716095, "name": "Rio Douro", "waterway": "river" }, "geometry": { "type": "LineString", "coordinates": [ [ -7.0856025, 41.1301375 ], [ -7.0856162, 41.1302086 ], [ -7.0862391, 41.1307508 ], [ -7.0871343, 41.1314137 ], [ -7.0879332, 41.1318871 ], [ -7.08972, 41.1325921 ], [ -7.0903192, 41.1328739 ], [ -7.0932021, 41.1339679 ], [ -7.0957864, 41.1347316 ], [ -7.0967407, 41.1350136 ], [ -7.0995285, 41.1355814 ], [ -7.100885, 41.135784 ], [ -7.1035037, 41.1360009 ], [ -7.1063253, 41.1361101 ], [ -7.1064267, 41.136114 ], [ -7.108273, 41.136131 ], [ -7.1092306, 41.1360573 ], [ -7.1100955, 41.1359908 ] ] } },
{ "type": "Feature", "properties": { "id": 503716098, "name": "Rio Douro", "waterway": "river" }, "geometry": { "type": "LineString", "coordinates": [ [ -7.1100955, 41.1359908 ], [ -7.1115983, 41.1362133 ], [ -7.1132237, 41.1362295 ], [ -7.1136126, 41.1362082 ], [ -7.1140458, 41.1361386 ], [ -7.1142805, 41.1360939 ], [ -7.1143163, 41.1360881 ] ] } },
{ "type": "Feature", "properties": { "id": 503718862, "name": "Río Duero - Rio Douro", "waterway": "river" }, "geometry": { "type": "LineString", "coordinates": [ [ -6.7584191, 41.1064834 ], [ -6.7552951, 41.1046975 ], [ -6.7550565, 41.1045611 ], [ -6.7546127, 41.1038876 ], [ -6.7559204, 41.1005333 ], [ -6.7583446, 41.0977408 ], [ -6.7609444, 41.095911 ], [ -6.7621121, 41.0938536 ], [ -6.7625992, 41.0929954 ], [ -6.7648511, 41.0901778 ], [ -6.7679761, 41.0885771 ], [ -6.7683754, 41.0883726 ], [ -6.7687452, 41.0879652 ], [ -6.770607, 41.0859143 ], [ -6.771637, 41.0820327 ], [ -6.7752419, 41.0755627 ], [ -6.7752827, 41.0755042 ], [ -6.775979, 41.074507 ], [ -6.7763332, 41.0739997 ], [ -6.7786751, 41.0706451 ], [ -6.7788636, 41.0703794 ], [ -6.781988, 41.0659756 ], [ -6.7826233, 41.06508 ], [ -6.7848549, 41.063268 ], [ -6.785826, 41.0620852 ], [ -6.7870865, 41.0605499 ], [ -6.7898331, 41.057055 ], [ -6.7938016, 41.0546716 ], [ -6.7956362, 41.0535762 ], [ -6.7977448, 41.0518759 ], [ -6.798157, 41.0515435 ], [ -6.8015759, 41.0484121 ], [ -6.8033847, 41.0475042 ], [ -6.8039373, 41.0472268 ], [ -6.8040154, 41.0471723 ], [ -6.8045949, 41.0470526 ], [ -6.8056194, 41.0467812 ], [ -6.8074893, 41.0459406 ], [ -6.8084779, 41.0454962 ] ] } },
{ "type": "Feature", "properties": { "id": 1427408735, "name": "Rio Douro", "waterway": "river" }, "geometry": { "type": "LineString", "coordinates": [ [ -7.1100955, 41.1359908 ], [ -7.1109746, 41.1358747 ], [ -7.1126503, 41.1355662 ] ] } }
]
}
