{
"type": "FeatureCollection",
"name": "osm_coa_overpass",
"crs": { "type": "name", "properties": { "name": "urn:ogc:def:crs:OGC:1.3:CRS84" } },
"features": [
{ "type": "Feature", "properties": { "id": 48131620, "name": "Rio Côa", "waterway": "river" }, "geometry": { "type": "LineString", "coordinates": [ [ -7.0931809, 40.3363542 ], [ -7.0932112, 40.3369543 ], [ -7.0927798, 40.3380134 ], [ -7.0927665, 40.3382993 ], [ -7.0927978, 40.338347 ], [ -7.0928443, 40.3384178 ], [ -7.0927852, 40.338933 ], [ -7.092281, 40.3396384 ], [ -7.0916147, 40.3413813 ], [ -7.091353, 40.3445734 ], [ -7.0909587, 40.3452481 ], [ -7.0907858, 40.3458979 ], [ -7.0907669, 40.3464001 ], [ -7.0908849, 40.3467741 ], [ -7.0910975, 40.347117 ], [ -7.0922292, 40.347909 ], [ -7.0928764, 40.3486948 ], [ -7.0938559, 40.3495946 ], [ -7.0939099, 40.3496128 ], [ -7.0940442, 40.3496524 ], [ -7.094272, 40.3497223 ], [ -7.0952416, 40.3499116 ], [ -7.095674, 40.350097 ], [ -7.0957717, 40.3501788 ], [ -7.0958636, 40.3502559 ], [ -7.0961278, 40.3504386 ], [ -7.0962885, 40.3506964 ], [ -7.0963191, 40.3510014 ], [ -7.0961984, 40.3514072 ], [ -7.0960674, 40.35154 ], [ -7.095907, 40.3516646 ], [ -7.0958502, 40.3517231 ], [ -7.0957371, 40.3518486 ], [ -7.0955146, 40.3520955 ], [ -7.0954862, 40.352127 ], [ -7.0951298, 40.3523288 ], [ -7.0951027, 40.3523441 ], [ -7.0937843, 40.3530346 ], [ -7.0930905, 40.3537118 ], [ -7.0923471, 40.3541306 ], [ -7.0912623, 40.3548745 ], [ -7.0910113, 40.3551485 ], [ -7.0903047, 40.3559201 ], [ -7.0891919, 40.3570205 ], [ -7.0891213, 40.3572014 ], [ -7.0889237, 40.3575282 ], [ -7.0888345, 40.3580838 ], [ -7.0890901, 40.3596441 ], [ -7.0898776, 40.3619036 ], [ -7.0899796, 40.3620835 ], [ -7.0901186, 40.3621569 ], [ -7.0905752, 40.3624947 ], [ -7.0907663, 40.3626361 ], [ -7.0909066, 40.3631132 ], [ -7.0909141, 40.36348 ], [ -7.0906358, 40.3639291 ], [ -7.0901772, 40.3647117 ], [ -7.0897952, 40.3651235 ] ] } },
{ "type": "Feature", "properties": { "id": 93923740, "name": "Rio Côa", "waterway": "river" }, "geometry": { "type": "LineString", "coordinates": [ [ -7.0897952, 40.3651235 ], [ -7.0893789, 40.3653812 ], [ -7.0889766, 40.365516 ], [ -7.0886172, 40.3654139 ], [ -7.0883597, 40.3650828 ], [ -7.0878072, 40.3648539 ], [ -7.0872841, 40.3646616 ], [ -7.0870397, 40.3645957 ], [ -7.0864929, 40.3647517 ], [ -7.0858277, 40.3647926 ], [ -7.0852376, 40.3645187 ], [ -7.0836068, 40.3623892 ], [ -7.0831133, 40.3620377 ], [ -7.0825769, 40.3617801 ], [ -7.0819653, 40.3616289 ], [ -7.081284, 40.3616984 ], [ -7.0801039, 40.362099 ], [ -7.0796854, 40.362475 ], [ -7.079546, 40.3627775 ], [ -7.0796908, 40.3630146 ], [ -7.0799376, 40.3632394 ], [ -7.0804204, 40.3634601 ], [ -7.0807959, 40.3642081 ], [ -7.0810373, 40.3645473 ], [ -7.081445, 40.364907 ], [ -7.0826305, 40.3653975 ], [ -7.0830221, 40.3657654 ], [ -7.0831884, 40.3662477 ], [ -7.0830436, 40.3677763 ], [ -7.0826788, 40.3681033 ], [ -7.082652, 40.3684711 ], [ -7.0823033, 40.3689452 ], [ -7.0819438, 40.3691741 ], [ -7.0810426, 40.3687122 ], [ -7.0804364, 40.368324 ], [ -7.0783229, 40.3661169 ], [ -7.0776794, 40.3656436 ], [ -7.077073, 40.3654915 ], [ -7.0764882, 40.3656754 ], [ -7.0761717, 40.3659983 ], [ -7.0760913, 40.3668117 ], [ -7.0757855, 40.3673553 ], [ -7.0747824, 40.3685733 ], [ -7.0742459, 40.3690147 ], [ -7.0734252, 40.3692272 ], [ -7.0729853, 40.3692395 ], [ -7.0723952, 40.3689697 ], [ -7.0716603, 40.3687449 ], [ -7.0699597, 40.3690106 ], [ -7.0692516, 40.3692231 ], [ -7.0688547, 40.3695583 ], [ -7.0686967, 40.3697492 ], [ -7.0680393, 40.3705432 ], [ -7.0680017, 40.3710132 ], [ -7.0681251, 40.3716958 ], [ -7.0679481, 40.3735349 ], [ -7.0680125, 40.3739435 ], [ -7.0679803, 40.3744462 ], [ -7.0677657, 40.3756068 ], [ -7.0675028, 40.3761463 ], [ -7.0670308, 40.3766775 ], [ -7.0657004, 40.3775725 ], [ -7.0648153, 40.3779648 ], [ -7.0633293, 40.3788475 ], [ -7.062648, 40.379771 ], [ -7.0622457, 40.3801756 ], [ -7.0620419, 40.3806455 ], [ -7.0619775, 40.3812217 ], [ -7.0616342, 40.3816263 ], [ -7.0610494, 40.3827214 ], [ -7.0605988, 40.3833016 ], [ -7.0595796, 40.3843763 ], [ -7.0593865, 40.3848299 ], [ -7.0591719, 40.3851649 ], [ -7.0585872, 40.3859249 ], [ -7.0568116, 40.3876084 ], [ -7.0552559, 40.388732 ], [ -7.0548857, 40.3891692 ], [ -7.0543546, 40.3900354 ], [ -7.0543654, 40.3902969 ], [ -7.0545639, 40.3905706 ], [ -7.0549716, 40.3907545 ], [ -7.0568276, 40.3910814 ], [ -7.0573855, 40.3912734 ], [ -7.0577664, 40.3915267 ], [ -7.0578898, 40.3917718 ], [ -7.0579971, 40.3922131 ], [ -7.0578092, 40.393341 ], [ -7.0566306, 40.3946649 ], [ -7.0564024, 40.3950659 ], [ -7.0563518, 40.3951549 ], [ -7.0561179, 40.395825 ], [ -7.0560924, 40.3958643 ], [ -7.0558089, 40.396302 ], [ -7.0553208, 40.3967889 ], [ -7.0550101, 40.3972291 ], [ -7.0545754, 40.3979275 ], [ -7.053863, 40.3987433 ], [ -7.0537411, 40.3999017 ], [ -7.0540465, 40.4006739 ], [ -7.0541331, 40.400893 ], [ -7.0546336, 40.4017661 ], [ -7.0499766, 40.4057112 ], [ -7.0501964, 40.4065923 ], [ -7.0507228, 40.4071552 ], [ -7.0515922, 40.40779 ], [ -7.0519178, 40.4083329 ], [ -7.0524749, 40.409819 ], [ -7.0524109, 40.4106087 ], [ -7.0522688, 40.4109073 ], [ -7.0520095, 40.4112073 ], [ -7.0514707, 40.4113329 ], [ -7.0505818, 40.4113688 ], [ -7.0500296, 40.4115123 ], [ -7.0495144, 40.4118944 ], [ -7.0490564, 40.4123302 ], [ -7.0484453, 40.4136223 ], [ -7.0475993, 40.4149714 ], [ -7.0474099, 40.4152734 ], [ -7.0470092, 40.4156707 ], [ -7.0467398, 40.4160399 ], [ -7.0455966, 40.4171448 ], [ -7.0450276, 40.417596 ], [ -7.0444013, 40.4179831 ], [ -7.043908, 40.4181654 ], [ -7.0433743, 40.4183634 ], [ -7.0420308, 40.4188676 ], [ -7.0412967, 40.4190752 ], [ -7.0404515, 40.4191137 ], [ -7.0395457, 40.4192316 ], [ -7.0384716, 40.4195341 ], [ -7.0378891, 40.4197853 ], [ -7.0374907, 40.4198095 ], [ -7.0367476, 40.4198545 ], [ -7.0362694, 40.4199417 ], [ -7.0357812, 40.4201698 ], [ -7.0351044, 40.4206389 ], [ -7.0343535, 40.4212747 ], [ -7.0338131, 40.421854 ], [ -7.0329292, 40.4223616 ], [ -7.0321177, 40.4223923 ], [ -7.0317742, 40.4224487 ], [ -7.0316059, 40.4226102 ], [ -7.0315688, 40.4228538 ], [ -7.031424, 40.4230537 ], [ -7.0305519, 40.4234459 ], [ -7.0297269, 40.4237022 ], [ -7.0290973, 40.423833 ], [ -7.0277235, 40.4242944 ], [ -7.0274271, 40.4245507 ], [ -7.0272167, 40.4249249 ], [ -7.0277184, 40.4258554 ], [ -7.0277689, 40.4264193 ], [ -7.0275669, 40.4269653 ], [ -7.0272403, 40.4272908 ], [ -7.0266965, 40.4275856 ], [ -7.0263429, 40.4279137 ], [ -7.0254321, 40.4291492 ], [ -7.025395, 40.4294593 ], [ -7.0251155, 40.4297105 ], [ -7.0237328, 40.4304232 ] ] } },
{ "type": "Feature", "properties": { "id": 168740085, "name": "Rio Côa", "waterway": "river" }, "geometry": { "type": "LineString", "coordinates": [ [ -6.9884929, 40.3132835 ], [ -6.9888673, 40.313273 ], [ -6.990253, 40.3131155 ], [ -6.991008, 40.3131191 ], [ -6.9924434, 40.3136554 ], [ -6.9926433, 40.3136387 ], [ -6.9930157, 40.3136077 ], [ -6.9937239, 40.3129061 ], [ -6.9944967, 40.3124294 ], [ -6.9956906, 40.3127417 ], [ -6.997064, 40.313408 ], [ -6.9986642, 40.3137566 ], [ -6.9986871, 40.3137616 ], [ -7.0005479, 40.3138547 ], [ -7.0024002, 40.3140214 ], [ -7.0032051, 40.3140542 ], [ -7.0038474, 40.3139046 ], [ -7.00433, 40.3135181 ], [ -7.0048771, 40.3127636 ], [ -7.0052346, 40.3125315 ], [ -7.0056507, 40.3123837 ], [ -7.006342, 40.3123735 ], [ -7.0069022, 40.3127354 ], [ -7.0070791, 40.3132799 ], [ -7.0070815, 40.3132977 ], [ -7.0070569, 40.313703 ], [ -7.0079054, 40.3147577 ], [ -7.0083614, 40.3152815 ], [ -7.0086851, 40.3157976 ], [ -7.00872, 40.3163009 ], [ -7.0085472, 40.3167594 ], [ -7.0081472, 40.3173854 ], [ -7.0075443, 40.3180756 ], [ -7.007083, 40.3188714 ], [ -7.0064618, 40.3210526 ], [ -7.0060338, 40.3216263 ], [ -7.0057906, 40.3222835 ], [ -7.0055747, 40.322867 ], [ -7.0056038, 40.3231884 ], [ -7.00568, 40.3233359 ], [ -7.0058077, 40.3234445 ], [ -7.0059492, 40.3235111 ], [ -7.0061485, 40.3235508 ], [ -7.0064169, 40.3235153 ], [ -7.0072766, 40.3231455 ], [ -7.0076283, 40.3229636 ], [ -7.0077971, 40.322865 ], [ -7.0079803, 40.322758 ], [ -7.0084787, 40.3222294 ], [ -7.0087986, 40.3219837 ], [ -7.0093401, 40.321763 ], [ -7.0103565, 40.3216021 ], [ -7.0108537, 40.3213769 ], [ -7.0111884, 40.3210767 ], [ -7.0121532, 40.319902 ], [ -7.0128866, 40.3191627 ], [ -7.0137726, 40.3184871 ], [ -7.0143879, 40.3182432 ], [ -7.0149885, 40.3180705 ], [ -7.0154807, 40.3181306 ], [ -7.0158499, 40.318337 ], [ -7.0170362, 40.3201572 ], [ -7.0175063, 40.3206864 ], [ -7.0186237, 40.3214595 ], [ -7.0201201, 40.3222476 ], [ -7.0209077, 40.3224353 ], [ -7.0216263, 40.3223527 ], [ -7.0226559, 40.3217513 ], [ -7.0229446, 40.3214673 ], [ -7.0232937, 40.3209648 ], [ -7.0236525, 40.3207481 ], [ -7.0241859, 40.3208554 ], [ -7.0247176, 40.3212118 ], [ -7.0250572, 40.3214182 ], [ -7.0256971, 40.3216322 ], [ -7.0263912, 40.3219737 ], [ -7.0272231, 40.3224159 ], [ -7.0278679, 40.3227438 ], [ -7.0283838, 40.3228711 ], [ -7.0288804, 40.322847 ], [ -7.0290461, 40.3228478 ], [ -7.029501, 40.3228501 ], [ -7.0300326, 40.3228966 ], [ -7.0303152, 40.32288 ], [ -7.0306234, 40.322844 ], [ -7.0310775, 40.3228224 ], [ -7.0319209, 40.3226403 ], [ -7.0321901, 40.3225816 ], [ -7.0324968, 40.3224466 ], [ -7.0327722, 40.3223342 ], [ -7.0331722, 40.3221181 ], [ -7.0339052, 40.3218017 ], [ -7.0344282, 40.3214558 ], [ -7.0353631, 40.3208911 ], [ -7.0360943, 40.3205389 ], [ -7.0369817, 40.3200894 ], [ -7.0375355, 40.3196907 ], [ -7.0388738, 40.319116 ], [ -7.0397352, 40.318512 ], [ -7.0402575, 40.3182004 ], [ -7.0404648, 40.3178798 ], [ -7.040334, 40.3175466 ], [ -7.0397121, 40.3168582 ], [ -7.038937, 40.3161911 ], [ -7.0382969, 40.3154214 ], [ -7.0380072, 40.3148184 ], [ -7.0380072, 40.3144797 ], [ -7.0382498, 40.3142047 ], [ -7.0393182, 40.3133624 ], [ -7.0401805, 40.3130483 ], [ -7.0405951, 40.3129851 ], [ -7.0409658, 40.3129935 ], [ -7.0416906, 40.3133825 ], [ -7.0420815, 40.313554 ], [ -7.0424733, 40.3135352 ], [ -7.043029, 40.3133644 ], [ -7.0434116, 40.3130052 ], [ -7.0435619, 40.3124297 ], [ -7.0433341, 40.3118927 ], [ -7.0430823, 40.3115266 ], [ -7.0426914, 40.3111879 ], [ -7.0423539, 40.3108176 ], [ -7.0421196, 40.3104431 ], [ -7.04204, 40.3101041 ], [ -7.0420343, 40.3097421 ], [ -7.0423424, 40.307766 ], [ -7.0427006, 40.3061985 ] ] } },
{ "type": "Feature", "properties": { "id": 176013884, "name": "Rio Côa", "waterway": "river" }, "geometry": { "type": "LineString", "coordinates": [ [ -7.1016869, 40.9712749 ], [ -7.1018833, 40.9718797 ], [ -7.10212, 40.9723629 ], [ -7.1024049, 40.9725714 ], [ -7.1029528, 40.9735708 ], [ -7.1026981, 40.9739808 ], [ -7.1028082, 40.9749475 ], [ -7.1028476, 40.9755597 ], [ -7.1026504, 40.9757483 ], [ -7.10262, 40.9761214 ], [ -7.1024356, 40.9765359 ], [ -7.1017844, 40.9772026 ], [ -7.1012741, 40.9773566 ], [ -7.1010933, 40.977437 ], [ -7.0999942, 40.9779258 ], [ -7.0993603, 40.9783328 ], [ -7.0991796, 40.9785219 ], [ -7.0991331, 40.9785706 ], [ -7.0990825, 40.978669 ], [ -7.0990036, 40.9788226 ], [ -7.0990037, 40.9790178 ], [ -7.0990038, 40.9792251 ], [ -7.0991579, 40.9795907 ], [ -7.0994507, 40.9797425 ], [ -7.1004895, 40.9804639 ], [ -7.1011338, 40.9809404 ], [ -7.1012768, 40.9810617 ], [ -7.1018006, 40.9815059 ], [ -7.1025593, 40.9819256 ], [ -7.1027568, 40.9819672 ], [ -7.1029737, 40.982013 ], [ -7.1037651, 40.9822514 ], [ -7.1041245, 40.9823822 ], [ -7.1044228, 40.982505 ], [ -7.1045732, 40.9825669 ], [ -7.1052087, 40.9829051 ], [ -7.1052928, 40.9830074 ], [ -7.1055022, 40.9835368 ], [ -7.1058383, 40.9838347 ], [ -7.1059299, 40.9839159 ], [ -7.1061221, 40.9843323 ], [ -7.1062128, 40.9848902 ], [ -7.1063664, 40.9852378 ], [ -7.1065738, 40.9862126 ], [ -7.1071192, 40.9894534 ], [ -7.1070603, 40.9897423 ], [ -7.1069875, 40.9900269 ], [ -7.1070143, 40.9900581 ], [ -7.1071077, 40.990276 ], [ -7.1072786, 40.9902742 ], [ -7.1073513, 40.9904131 ], [ -7.1073089, 40.9906118 ], [ -7.1072442, 40.9906297 ], [ -7.1069648, 40.9907071 ], [ -7.1068325, 40.9909902 ], [ -7.1066915, 40.9911426 ], [ -7.1066972, 40.9916081 ], [ -7.1066072, 40.9917532 ], [ -7.1062449, 40.9923864 ], [ -7.1056721, 40.9937337 ], [ -7.105468, 40.9938516 ], [ -7.1054103, 40.9941583 ], [ -7.1053478, 40.9943791 ] ] } },
{ "type": "Feature", "properties": { "id": 176013887, "name": "Rio Côa", "waterway": "river" }, "geometry": { "type": "LineString", "coordinates": [ [ -7.1045326, 40.9966755 ], [ -7.1044268, 40.9967217 ], [ -7.1042405, 40.9967606 ], [ -7.1041642, 40.996798 ], [ -7.1036274, 40.9974493 ], [ -7.1033809, 40.9976497 ], [ -7.1032396, 40.9977542 ], [ -7.1032508, 40.9979236 ], [ -7.1029734, 40.9987419 ], [ -7.1025357, 40.9995421 ], [ -7.1022981, 40.9999763 ], [ -7.1023375, 41.0004718 ], [ -7.1024914, 41.0009575 ], [ -7.1027233, 41.0010554 ], [ -7.1030199, 41.0011089 ], [ -7.1032476, 41.0012035 ], [ -7.1034929, 41.0015243 ], [ -7.1036313, 41.0017301 ], [ -7.1036685, 41.0018926 ], [ -7.1037318, 41.0021696 ], [ -7.1041087, 41.002456 ], [ -7.1047117, 41.0030057 ], [ -7.1055784, 41.0037956 ], [ -7.1057057, 41.0039021 ], [ -7.1062061, 41.0045453 ], [ -7.1064511, 41.0047754 ], [ -7.1065642, 41.0049997 ], [ -7.1065136, 41.0052854 ], [ -7.1066649, 41.0063771 ], [ -7.1060937, 41.0069524 ], [ -7.1056364, 41.007757 ], [ -7.1051315, 41.0085486 ], [ -7.1050097, 41.0090037 ], [ -7.1050473, 41.0092868 ], [ -7.1049849, 41.0098855 ], [ -7.10497, 41.0117939 ], [ -7.1051433, 41.0128068 ], [ -7.1051706, 41.0130388 ], [ -7.105313, 41.0134577 ], [ -7.1053685, 41.0136642 ], [ -7.1053842, 41.0139762 ], [ -7.105359, 41.0142309 ], [ -7.1055354, 41.0147468 ], [ -7.1055079, 41.0151296 ], [ -7.105384, 41.015482 ], [ -7.1054548, 41.0158029 ], [ -7.1054069, 41.0161616 ], [ -7.105176, 41.0163889 ], [ -7.104863, 41.0164759 ], [ -7.1045409, 41.0165331 ], [ -7.1041243, 41.0168706 ], [ -7.1041756, 41.0170011 ], [ -7.1040515, 41.0171747 ], [ -7.1039184, 41.0171815 ], [ -7.1037921, 41.0172649 ], [ -7.1033907, 41.0174452 ], [ -7.10312, 41.0176682 ], [ -7.10289, 41.0179695 ], [ -7.1027276, 41.0183182 ], [ -7.1027963, 41.0185231 ], [ -7.1027614, 41.0186807 ], [ -7.1027366, 41.0189224 ], [ -7.1029511, 41.019121 ], [ -7.1032481, 41.0195808 ], [ -7.1036049, 41.0197783 ], [ -7.1038839, 41.019935 ], [ -7.1044122, 41.02047 ], [ -7.1046898, 41.0206377 ], [ -7.1049875, 41.0206802 ], [ -7.1067313, 41.0208932 ], [ -7.1075903, 41.0211059 ], [ -7.1080767, 41.0214302 ], [ -7.1083474, 41.0218398 ], [ -7.1085107, 41.0224404 ], [ -7.1082737, 41.0231821 ], [ -7.1081007, 41.0234425 ], [ -7.1080309, 41.0236327 ], [ -7.1080054, 41.0239281 ], [ -7.1083348, 41.0243775 ], [ -7.108398, 41.0245559 ], [ -7.1086601, 41.0252964 ], [ -7.108827, 41.0254267 ], [ -7.1092931, 41.0256051 ], [ -7.1095761, 41.0256085 ], [ -7.1105782, 41.0256208 ], [ -7.1124869, 41.0262197 ], [ -7.1137458, 41.0270726 ], [ -7.1149288, 41.027874 ], [ -7.1156305, 41.0298615 ], [ -7.1156271, 41.0300226 ], [ -7.1156131, 41.0301505 ], [ -7.1153157, 41.0313029 ], [ -7.1128688, 41.0331008 ], [ -7.1099952, 41.0344235 ], [ -7.1091503, 41.035256 ], [ -7.108749, 41.036503 ], [ -7.1088494, 41.0370266 ], [ -7.109097, 41.0376013 ], [ -7.1093602, 41.0379593 ], [ -7.1096931, 41.0385051 ], [ -7.1106262, 41.0390899 ], [ -7.1127408, 41.0397194 ], [ -7.1142823, 41.0404117 ], [ -7.1155725, 41.0414361 ], [ -7.1160349, 41.0423744 ], [ -7.1163278, 41.0429687 ], [ -7.1160512, 41.0441669 ], [ -7.115491, 41.0465938 ], [ -7.1139758, 41.0486061 ], [ -7.1136413, 41.0490503 ], [ -7.1116286, 41.0524825 ], [ -7.1116694, 41.0527167 ], [ -7.1118861, 41.0539614 ], [ -7.1118717, 41.0543504 ], [ -7.1118403, 41.0568003 ], [ -7.1115392, 41.0571964 ], [ -7.1106667, 41.0588124 ] ] } },
{ "type": "Feature", "properties": { "id": 176461902, "name": "Rio Côa", "waterway": "river" }, "geometry": { "type": "LineString", "coordinates": [ [ -7.0237328, 40.4304232 ], [ -7.0230963, 40.4307882 ], [ -7.0226393, 40.431334 ], [ -7.0227336, 40.4315862 ], [ -7.0228339, 40.4316368 ], [ -7.0237303, 40.4320885 ], [ -7.0239781, 40.4324576 ], [ -7.0237668, 40.432703 ], [ -7.0241094, 40.4332022 ], [ -7.0241971, 40.4338691 ], [ -7.0240868, 40.4345632 ], [ -7.0242823, 40.4347556 ], [ -7.0243707, 40.4348924 ], [ -7.024562, 40.4351858 ], [ -7.024634, 40.435403 ], [ -7.0246754, 40.4357505 ], [ -7.0246047, 40.4360262 ], [ -7.0244197, 40.4362956 ], [ -7.0241881, 40.4365414 ], [ -7.0239096, 40.4369252 ], [ -7.0237953, 40.4372245 ], [ -7.0239558, 40.4374752 ], [ -7.0245006, 40.4377909 ], [ -7.0248205, 40.4381292 ], [ -7.0255579, 40.4396105 ], [ -7.0264738, 40.4412609 ], [ -7.0263925, 40.4416731 ], [ -7.0267706, 40.4428709 ] ] } },
{ "type": "Feature", "properties": { "id": 176461906, "name": "Rio Côa", "waterway": "river" }, "geometry": { "type": "LineString", "coordinates": [ [ -7.0267706, 40.4428709 ], [ -7.0270451, 40.4439192 ], [ -7.0269254, 40.444156 ], [ -7.0270075, 40.4443773 ], [ -7.0272674, 40.4445803 ], [ -7.0282147, 40.4461627 ], [ -7.0282167, 40.4464207 ], [ -7.0282181, 40.4466051 ], [ -7.0276496, 40.4473809 ], [ -7.0269265, 40.4478722 ], [ -7.0267007, 40.4479876 ], [ -7.0260834, 40.4480548 ], [ -7.0254696, 40.4481997 ], [ -7.0249793, 40.4484145 ], [ -7.0244325, 40.448997 ], [ -7.0238293, 40.4494372 ], [ -7.022786, 40.4508587 ], [ -7.0225646, 40.4522332 ], [ -7.0202053, 40.4550045 ], [ -7.0184489, 40.4580318 ], [ -7.0196318, 40.4596682 ], [ -7.0201694, 40.4606772 ], [ -7.019345, 40.461659 ], [ -7.0171394, 40.4638315 ], [ -7.0155752, 40.4652764 ], [ -7.0154137, 40.4656101 ], [ -7.0154914, 40.4659006 ], [ -7.0155537, 40.4661335 ], [ -7.0159251, 40.4667343 ], [ -7.0159757, 40.467413 ], [ -7.0149739, 40.4688722 ], [ -7.0145372, 40.4701431 ], [ -7.0138116, 40.4717484 ], [ -7.0136949, 40.4718499 ], [ -7.0134093, 40.4726243 ], [ -7.0128544, 40.4737199 ], [ -7.0114303, 40.474189 ], [ -7.0111073, 40.4747362 ], [ -7.010476, 40.4751048 ], [ -7.0094043, 40.4754398 ], [ -7.0086008, 40.4761441 ], [ -7.0079676, 40.4771964 ], [ -7.0066547, 40.477843 ], [ -7.0043804, 40.477131 ], [ -7.0035642, 40.4770275 ] ] } },
{ "type": "Feature", "properties": { "id": 179795730, "name": "Rio Côa", "waterway": "river" }, "geometry": { "type": "LineString", "coordinates": [ [ -6.9079337, 40.6418099 ], [ -6.9080415, 40.6419261 ], [ -6.9082728, 40.6421752 ], [ -6.9087301, 40.642668 ], [ -6.9090001, 40.6429169 ], [ -6.9098682, 40.6432036 ], [ -6.9101565, 40.643561 ], [ -6.9106386, 40.6443049 ], [ -6.9109887, 40.6450969 ], [ -6.9111148, 40.6453822 ], [ -6.9119195, 40.6454962 ], [ -6.9132738, 40.6460172 ], [ -6.9133584, 40.6461281 ], [ -6.9134912, 40.6463022 ], [ -6.9138351, 40.6467531 ], [ -6.9141618, 40.6476941 ], [ -6.9140863, 40.6478503 ], [ -6.9139268, 40.6478648 ], [ -6.9137291, 40.6480994 ], [ -6.9137915, 40.6483876 ], [ -6.9141107, 40.6487452 ], [ -6.9142412, 40.6492785 ], [ -6.9136361, 40.6507059 ], [ -6.910407, 40.6549687 ], [ -6.9095526, 40.6557453 ], [ -6.9090998, 40.65676 ], [ -6.9092333, 40.6576594 ], [ -6.908996, 40.6587945 ], [ -6.9088146, 40.6596622 ], [ -6.9088253, 40.6599027 ], [ -6.9088866, 40.6604214 ], [ -6.9090004, 40.6607105 ], [ -6.9091189, 40.6610117 ], [ -6.9101994, 40.6621174 ], [ -6.9112378, 40.6631799 ], [ -6.9137295, 40.6663342 ], [ -6.9150947, 40.6680624 ], [ -6.9162212, 40.6696684 ], [ -6.9161729, 40.6712357 ], [ -6.9156799, 40.6719591 ], [ -6.916425, 40.6736838 ], [ -6.9173263, 40.6737997 ], [ -6.9182709, 40.6741448 ], [ -6.9197951, 40.675419 ], [ -6.9206669, 40.6769729 ], [ -6.921111, 40.6786605 ], [ -6.9217042, 40.6809144 ], [ -6.9239458, 40.6843541 ], [ -6.924194, 40.684887 ], [ -6.9243475, 40.6852865 ], [ -6.9242443, 40.6857533 ], [ -6.9238837, 40.6873831 ], [ -6.9242144, 40.6875925 ], [ -6.9242276, 40.6879894 ], [ -6.9249135, 40.688955 ], [ -6.9249635, 40.6889686 ], [ -6.9257601, 40.6893677 ], [ -6.9265945, 40.6899803 ], [ -6.926854, 40.6898962 ], [ -6.9275717, 40.6902283 ], [ -6.9296006, 40.6902867 ], [ -6.9298771, 40.6911327 ], [ -6.9296006, 40.6919788 ], [ -6.9296585, 40.6936546 ], [ -6.9298116, 40.698085 ], [ -6.9309517, 40.6981917 ], [ -6.9313664, 40.698642 ], [ -6.9318946, 40.6993859 ], [ -6.9316605, 40.7000481 ], [ -6.931686, 40.7002475 ], [ -6.9317215, 40.700525 ], [ -6.9316561, 40.7008209 ], [ -6.9312573, 40.7011041 ], [ -6.9312204, 40.7015104 ], [ -6.9309927, 40.7020175 ], [ -6.9308332, 40.7023966 ], [ -6.9308712, 40.7025566 ], [ -6.9310332, 40.7028425 ], [ -6.9310816, 40.702886 ], [ -6.9311647, 40.7029185 ], [ -6.9312964, 40.7029124 ], [ -6.9313766, 40.702886 ], [ -6.9314504, 40.7028219 ], [ -6.9316417, 40.7027745 ], [ -6.9318084, 40.7027935 ], [ -6.9319088, 40.702873 ], [ -6.9321798, 40.7032214 ], [ -6.9323154, 40.7033435 ], [ -6.932443, 40.7034768 ], [ -6.9326796, 40.703758 ], [ -6.9326969, 40.7039062 ], [ -6.932715, 40.7041273 ], [ -6.9326905, 40.7043427 ], [ -6.9326078, 40.7051481 ], [ -6.9329665, 40.7061527 ], [ -6.933481, 40.7068243 ], [ -6.9341327, 40.7076749 ], [ -6.9342833, 40.7085937 ], [ -6.938254, 40.71157 ], [ -6.9386986, 40.7146224 ], [ -6.9393164, 40.7161206 ], [ -6.9393918, 40.7163036 ], [ -6.9397295, 40.7165174 ], [ -6.9402857, 40.7167387 ], [ -6.9423035, 40.7168343 ], [ -6.9426853, 40.7172076 ], [ -6.9427075, 40.7180232 ], [ -6.942593, 40.7183239 ], [ -6.9424776, 40.71867 ], [ -6.9418729, 40.7195 ], [ -6.9417287, 40.7200777 ], [ -6.9417426, 40.7202798 ], [ -6.9415399, 40.720828 ], [ -6.9415212, 40.7210342 ], [ -6.9415195, 40.721053 ], [ -6.9414979, 40.7213917 ], [ -6.941736, 40.7216672 ], [ -6.9418443, 40.7223 ], [ -6.9419076, 40.7226694 ], [ -6.9418144, 40.724197 ], [ -6.9419536, 40.7248105 ], [ -6.942447, 40.7255717 ], [ -6.9427761, 40.7258433 ], [ -6.9431872, 40.7259642 ], [ -6.9443658, 40.7262023 ], [ -6.9452678, 40.7264637 ], [ -6.9453862, 40.7268604 ], [ -6.9457905, 40.7282151 ], [ -6.9462517, 40.7304944 ], [ -6.9464052, 40.7319571 ], [ -6.9454594, 40.7344614 ], [ -6.945439, 40.7346466 ], [ -6.9454878, 40.7347805 ], [ -6.9457368, 40.7349171 ], [ -6.9469025, 40.7353019 ], [ -6.9480953, 40.7356956 ], [ -6.9486327, 40.7359567 ], [ -6.9488045, 40.7361909 ], [ -6.9490628, 40.736543 ], [ -6.949471, 40.7368783 ], [ -6.9494792, 40.7370353 ], [ -6.9493523, 40.7371747 ], [ -6.9490601, 40.7373654 ], [ -6.9490138, 40.7374327 ], [ -6.9489899, 40.7374882 ], [ -6.9489522, 40.7378936 ], [ -6.9494157, 40.7390007 ], [ -6.9519923, 40.7396278 ], [ -6.9519819, 40.7402926 ], [ -6.9531499, 40.7404991 ], [ -6.9537901, 40.7409776 ] ] } },
{ "type": "Feature", "properties": { "id": 179795750, "name": "Rio Côa", "waterway": "river" }, "geometry": { "type": "LineString", "coordinates": [ [ -6.9239358, 40.5946798 ], [ -6.9225625, 40.5975474 ], [ -6.9224063, 40.5982591 ], [ -6.9218289, 40.6008894 ], [ -6.9215325, 40.6022396 ], [ -6.9198402, 40.6058508 ], [ -6.9197578, 40.6071617 ], [ -6.9196306, 40.6074913 ], [ -6.9195485, 40.6077039 ], [ -6.9200526, 40.60846 ], [ -6.9197625, 40.6091686 ], [ -6.9201873, 40.6099431 ], [ -6.9198213, 40.6111548 ], [ -6.9197338, 40.6114443 ], [ -6.9196484, 40.6117272 ], [ -6.9193289, 40.6135757 ], [ -6.9190349, 40.6148754 ], [ -6.9183454, 40.6160025 ], [ -6.9172185, 40.6178679 ], [ -6.9171718, 40.6179453 ], [ -6.9168977, 40.6183989 ], [ -6.9160748, 40.6190103 ], [ -6.9151222, 40.6193499 ], [ -6.9145797, 40.6194881 ], [ -6.9132928, 40.6200928 ], [ -6.9130574, 40.6202424 ], [ -6.9124251, 40.6206445 ], [ -6.912144, 40.6210422 ], [ -6.9120451, 40.6214653 ], [ -6.9120277, 40.6219714 ], [ -6.9114059, 40.6228947 ], [ -6.9108103, 40.6232943 ], [ -6.9099103, 40.6246182 ], [ -6.9085944, 40.6265913 ], [ -6.9081822, 40.6268869 ], [ -6.907694, 40.6273661 ], [ -6.9073141, 40.6277033 ], [ -6.9072315, 40.6279331 ], [ -6.9072432, 40.6281745 ], [ -6.9073327, 40.6284029 ], [ -6.9073776, 40.6284309 ], [ -6.907881, 40.6287444 ], [ -6.9080021, 40.62898 ], [ -6.9076403, 40.6310853 ], [ -6.9074485, 40.6318341 ], [ -6.9074155, 40.6322942 ], [ -6.9069619, 40.6341145 ], [ -6.9070291, 40.6342854 ], [ -6.9078976, 40.6352317 ], [ -6.9090904, 40.6361095 ], [ -6.9093126, 40.6363509 ], [ -6.9093339, 40.636799 ], [ -6.9090012, 40.63729 ], [ -6.9086602, 40.6386768 ], [ -6.9086743, 40.6388521 ], [ -6.9089432, 40.6390596 ], [ -6.9089718, 40.6395065 ], [ -6.9085023, 40.6400324 ], [ -6.9078816, 40.6407277 ], [ -6.9077524, 40.6413551 ], [ -6.9077935, 40.6416012 ], [ -6.9079151, 40.6417822 ], [ -6.9079337, 40.6418099 ] ] } },
{ "type": "Feature", "properties": { "id": 209082588, "name": "Rio Côa", "waterway": "river" }, "geometry": { "type": "LineString", "coordinates": [ [ -6.9472139, 40.5309639 ], [ -6.9461138, 40.5315075 ], [ -6.9435038, 40.5332858 ], [ -6.9403677, 40.5360344 ], [ -6.9388702, 40.5368896 ], [ -6.937763, 40.5377725 ], [ -6.9373637, 40.538476 ], [ -6.9344691, 40.5407641 ], [ -6.9344687, 40.5420324 ], [ -6.9344686, 40.5425244 ], [ -6.9341523, 40.5430606 ], [ -6.933855, 40.5434071 ], [ -6.9330801, 40.5443107 ], [ -6.9320757, 40.5466112 ], [ -6.9319547, 40.547414 ], [ -6.9325718, 40.548807 ], [ -6.9336881, 40.5494759 ], [ -6.9348692, 40.5503681 ], [ -6.9350039, 40.5506237 ], [ -6.9349231, 40.5508823 ], [ -6.9346185, 40.5511606 ], [ -6.9338052, 40.5519034 ], [ -6.9335781, 40.5522561 ], [ -6.9331299, 40.5529519 ], [ -6.932881, 40.5536645 ], [ -6.9328248, 40.553908 ], [ -6.9328622, 40.5543902 ], [ -6.9333561, 40.5549083 ], [ -6.933615, 40.5550159 ], [ -6.9341601, 40.555089 ], [ -6.9344755, 40.5551862 ], [ -6.9359367, 40.5556364 ], [ -6.9361567, 40.5558337 ], [ -6.9362555, 40.5560092 ], [ -6.9365171, 40.5564739 ], [ -6.9367157, 40.556689 ], [ -6.9368106, 40.5567918 ], [ -6.9368555, 40.5568404 ], [ -6.9366371, 40.5574319 ], [ -6.9338533, 40.5584498 ], [ -6.9299819, 40.5612173 ], [ -6.9295018, 40.5621366 ], [ -6.9340989, 40.5659903 ], [ -6.9346653, 40.5672212 ], [ -6.933448, 40.568067 ], [ -6.9333782, 40.5683011 ], [ -6.9324891, 40.5712829 ], [ -6.9326542, 40.5721131 ], [ -6.9331914, 40.5725483 ], [ -6.9333763, 40.5731461 ], [ -6.9325188, 40.5744728 ], [ -6.9321981, 40.5752055 ], [ -6.9325188, 40.5755159 ], [ -6.933864, 40.5759759 ], [ -6.9339877, 40.5764492 ], [ -6.9339618, 40.5770805 ], [ -6.9340265, 40.579401 ], [ -6.9339672, 40.5803888 ], [ -6.9323245, 40.5814358 ], [ -6.930655, 40.582428 ], [ -6.9300484, 40.5827885 ], [ -6.9283477, 40.5848139 ], [ -6.9283158, 40.5849065 ], [ -6.9283003, 40.5849925 ], [ -6.9281707, 40.5857108 ], [ -6.9277597, 40.5864187 ], [ -6.9278832, 40.5870512 ], [ -6.9279474, 40.5873801 ], [ -6.9275736, 40.5882567 ], [ -6.9275971, 40.5888034 ], [ -6.9272911, 40.5892169 ], [ -6.9263056, 40.5895138 ], [ -6.9247941, 40.5912907 ], [ -6.9241228, 40.5926602 ], [ -6.924355, 40.5935194 ], [ -6.9239358, 40.5946798 ] ] } },
{ "type": "Feature", "properties": { "id": 308077547, "name": "Rio Côa", "waterway": "river" }, "geometry": { "type": "LineString", "coordinates": [ [ -7.0035642, 40.4770275 ], [ -7.0028072, 40.4771173 ], [ -7.0025195, 40.4772147 ], [ -7.0023513, 40.4773001 ], [ -7.0020728, 40.4773874 ], [ -7.0015713, 40.4774788 ], [ -7.0013754, 40.47752 ], [ -7.0008748, 40.4776565 ], [ -7.0007173, 40.4777018 ], [ -7.0005215, 40.4777665 ], [ -7.000232, 40.4779041 ], [ -6.9998104, 40.4780939 ], [ -6.9993425, 40.4782856 ], [ -6.9991379, 40.4783274 ], [ -6.9986364, 40.4784014 ], [ -6.9982484, 40.4784678 ], [ -6.9979016, 40.4785589 ], [ -6.997581, 40.4786956 ], [ -6.9959117, 40.479618 ], [ -6.9953391, 40.4800478 ], [ -6.9948775, 40.4805764 ], [ -6.9945681, 40.4811049 ], [ -6.9943173, 40.4817341 ], [ -6.9941726, 40.4821782 ], [ -6.9940404, 40.4828974 ], [ -6.9938744, 40.4835674 ], [ -6.9935551, 40.4844299 ], [ -6.9929924, 40.4850789 ], [ -6.9926421, 40.4852732 ], [ -6.9924397, 40.4853854 ], [ -6.9918022, 40.4856046 ], [ -6.9909826, 40.4857658 ], [ -6.9903201, 40.4858949 ], [ -6.9893034, 40.4860316 ], [ -6.9886284, 40.486154 ], [ -6.9878287, 40.4862678 ], [ -6.9870702, 40.4863532 ], [ -6.9862568, 40.4865952 ], [ -6.9854958, 40.486969 ], [ -6.9852463, 40.4871749 ], [ -6.9850067, 40.4877727 ], [ -6.9845676, 40.4883856 ], [ -6.9839563, 40.4889929 ], [ -6.9829146, 40.4900138 ], [ -6.9813177, 40.4915546 ], [ -6.9803095, 40.4924593 ], [ -6.9797907, 40.4929749 ], [ -6.9788553, 40.4941935 ], [ -6.9787009, 40.4943414 ], [ -6.9781775, 40.4948424 ], [ -6.9778668, 40.4951731 ], [ -6.9774732, 40.4963957 ], [ -6.9774196, 40.4968767 ], [ -6.9769954, 40.4984401 ], [ -6.9767434, 40.4990804 ], [ -6.9765812, 40.4996923 ], [ -6.9763541, 40.5003109 ], [ -6.9759599, 40.5009654 ], [ -6.9751116, 40.5018515 ], [ -6.9745938, 40.5022499 ], [ -6.9741397, 40.5027081 ], [ -6.9736432, 40.5033066 ], [ -6.972822, 40.5042039 ], [ -6.9724156, 40.504648 ], [ -6.9690603, 40.5063358 ], [ -6.9662797, 40.5088572 ], [ -6.9655217, 40.5095445 ], [ -6.9650232, 40.5100723 ], [ -6.9648971, 40.5102413 ], [ -6.9643307, 40.5109395 ], [ -6.9638994, 40.5115123 ], [ -6.9636356, 40.511843 ], [ -6.9631858, 40.5124716 ], [ -6.9630315, 40.5128083 ], [ -6.9629213, 40.5130927 ], [ -6.9628357, 40.513253 ], [ -6.9624634, 40.5138492 ], [ -6.9623972, 40.5139693 ], [ -6.9623373, 40.5140598 ] ] } },
{ "type": "Feature", "properties": { "id": 308077548, "name": "Rio Côa", "waterway": "river" }, "geometry": { "type": "LineString", "coordinates": [ [ -6.9623373, 40.5140598 ], [ -6.9621171, 40.5144168 ], [ -6.9613824, 40.5161222 ], [ -6.9604655, 40.5173751 ], [ -6.9571, 40.5206947 ], [ -6.9568098, 40.5210542 ], [ -6.9565974, 40.5213173 ], [ -6.954469, 40.5239537 ], [ -6.9510358, 40.5264329 ], [ -6.9472139, 40.5309639 ] ] } },
{ "type": "Feature", "properties": { "id": 309044392, "name": "Rio Côa", "waterway": "river" }, "geometry": { "type": "LineString", "coordinates": [ [ -7.0184973, 40.8028744 ], [ -7.0171207, 40.8037284 ], [ -7.0170518, 40.8040291 ], [ -7.017178, 40.8042683 ], [ -7.0177171, 40.8046067 ], [ -7.0177041, 40.8048186 ], [ -7.0171906, 40.8051906 ], [ -7.0172437, 40.8060676 ], [ -7.0173054, 40.8070865 ], [ -7.017815, 40.8078045 ], [ -7.0186927, 40.8083724 ], [ -7.019712, 40.808651 ], [ -7.021425, 40.8082331 ], [ -7.0232087, 40.8082866 ], [ -7.0246669, 40.8088653 ], [ -7.0258429, 40.8094145 ], [ -7.0261215, 40.8097573 ], [ -7.0261887, 40.8100385 ], [ -7.0261576, 40.8105423 ], [ -7.0263513, 40.8107343 ], [ -7.0266588, 40.81092 ], [ -7.0269385, 40.8109565 ], [ -7.0272183, 40.8109129 ], [ -7.0274951, 40.8108046 ], [ -7.0284609, 40.8101832 ], [ -7.029442, 40.8097126 ], [ -7.0298652, 40.8097596 ], [ -7.0308251, 40.8101082 ], [ -7.0320824, 40.8107071 ], [ -7.0329011, 40.8119887 ], [ -7.0325187, 40.8131991 ], [ -7.0309369, 40.8141463 ], [ -7.0308808, 40.8149945 ], [ -7.0301155, 40.8166338 ], [ -7.0302961, 40.81749 ], [ -7.0312559, 40.8180315 ], [ -7.0320329, 40.8182279 ], [ -7.03227, 40.8182983 ], [ -7.0345384, 40.8181944 ], [ -7.0353644, 40.8179439 ], [ -7.0362506, 40.8176751 ], [ -7.0374329, 40.8177402 ], [ -7.0405646, 40.8182413 ], [ -7.0411722, 40.8181396 ], [ -7.0416658, 40.818057 ], [ -7.042846, 40.8178247 ], [ -7.0445625, 40.8175857 ], [ -7.0483903, 40.8178526 ], [ -7.051812, 40.8191826 ], [ -7.053239, 40.8197373 ], [ -7.0551337, 40.820474 ], [ -7.0562882, 40.8207897 ], [ -7.0578078, 40.8210072 ], [ -7.0581978, 40.8209716 ], [ -7.0587493, 40.8209212 ], [ -7.06122, 40.8193481 ], [ -7.0612698, 40.8193164 ], [ -7.0620347, 40.8179482 ], [ -7.0636339, 40.8171721 ], [ -7.0636828, 40.8171819 ], [ -7.0651462, 40.8174746 ], [ -7.0659284, 40.8181587 ], [ -7.0709173, 40.8224734 ], [ -7.0729337, 40.8238941 ], [ -7.0732254, 40.8239975 ], [ -7.0754194, 40.8247754 ], [ -7.0766708, 40.8249519 ], [ -7.0769191, 40.825097 ], [ -7.0773141, 40.8253278 ], [ -7.0783704, 40.8256123 ], [ -7.0795115, 40.8255077 ], [ -7.0809106, 40.8251535 ], [ -7.0819452, 40.8250655 ], [ -7.0821957, 40.8250505 ], [ -7.0824462, 40.8250354 ], [ -7.0827743, 40.8249873 ], [ -7.0832562, 40.8248232 ], [ -7.0833518, 40.8248004 ], [ -7.0839147, 40.8246659 ], [ -7.0848343, 40.8246022 ], [ -7.0855041, 40.8246035 ], [ -7.0859177, 40.8246379 ], [ -7.0861851, 40.8246698 ], [ -7.0864396, 40.8247371 ], [ -7.0865687, 40.8247948 ], [ -7.0866801, 40.8248983 ], [ -7.0867696, 40.8250493 ], [ -7.0867917, 40.8251531 ], [ -7.0867952, 40.8253026 ], [ -7.0867554, 40.8255029 ], [ -7.0866522, 40.825745 ], [ -7.0865381, 40.8260305 ], [ -7.086355, 40.8264888 ], [ -7.0865581, 40.8274291 ], [ -7.0869695, 40.8277399 ], [ -7.0875463, 40.8280401 ], [ -7.0883564, 40.8285549 ], [ -7.0889286, 40.8289184 ], [ -7.0896364, 40.8293681 ], [ -7.0936994, 40.8311423 ], [ -7.0948407, 40.832441 ], [ -7.0950019, 40.8327302 ], [ -7.0949011, 40.8333272 ], [ -7.0942916, 40.8356492 ], [ -7.0944751, 40.8370916 ], [ -7.0953903, 40.8381055 ], [ -7.0955003, 40.8381595 ], [ -7.0964706, 40.8386355 ], [ -7.098847, 40.838672 ], [ -7.1020925, 40.8397597 ], [ -7.1028689, 40.839803 ], [ -7.1045011, 40.839894 ], [ -7.1048183, 40.8400145 ], [ -7.1051356, 40.8404741 ], [ -7.1052946, 40.8405991 ], [ -7.1062115, 40.8413194 ], [ -7.1065614, 40.8417076 ], [ -7.1069211, 40.8421065 ], [ -7.1070224, 40.8421991 ], [ -7.1071309, 40.84298 ], [ -7.107178, 40.8433188 ], [ -7.1070385, 40.8445038 ], [ -7.1077535, 40.8459392 ], [ -7.1078444, 40.8461217 ], [ -7.1078708, 40.8461746 ], [ -7.108106, 40.8466468 ], [ -7.1079616, 40.8482303 ], [ -7.1077626, 40.8504125 ], [ -7.1076393, 40.852157 ], [ -7.1076768, 40.853894 ], [ -7.1088785, 40.8564417 ], [ -7.109431, 40.8574601 ], [ -7.1093291, 40.8580443 ], [ -7.1094239, 40.8582836 ], [ -7.1096456, 40.8588436 ], [ -7.1099916, 40.8591256 ], [ -7.1107037, 40.8594901 ], [ -7.1141383, 40.8614361 ], [ -7.1170056, 40.8635989 ], [ -7.1178585, 40.8637405 ], [ -7.1193123, 40.8636756 ], [ -7.1193929, 40.8636904 ], [ -7.1210611, 40.8639961 ], [ -7.1220308, 40.8645818 ], [ -7.1221125, 40.8647065 ], [ -7.1220827, 40.8649638 ], [ -7.1218749, 40.8653314 ], [ -7.1216941, 40.8656513 ], [ -7.1213695, 40.8675178 ], [ -7.1210266, 40.8691732 ], [ -7.1208519, 40.8700167 ], [ -7.1206606, 40.8707078 ], [ -7.1204871, 40.8713347 ], [ -7.1193471, 40.8732996 ], [ -7.1188939, 40.8740808 ], [ -7.118146, 40.875095 ], [ -7.1170937, 40.876522 ], [ -7.1157704, 40.8783164 ], [ -7.1137064, 40.8793663 ], [ -7.1131888, 40.8797422 ], [ -7.1098226, 40.8840144 ], [ -7.1078867, 40.884517 ], [ -7.1072155, 40.8846913 ], [ -7.1055618, 40.8852854 ], [ -7.1053486, 40.8855778 ], [ -7.1051502, 40.8869141 ], [ -7.1047694, 40.8879236 ], [ -7.1041793, 40.8886941 ], [ -7.1034819, 40.8901175 ], [ -7.1036669, 40.8907079 ], [ -7.1035248, 40.8915734 ], [ -7.103895, 40.8923155 ], [ -7.1058363, 40.8948065 ], [ -7.1059867, 40.8949995 ], [ -7.1050711, 40.8981335 ], [ -7.1049916, 40.8984056 ], [ -7.1041735, 40.8991477 ], [ -7.104079, 40.8994857 ], [ -7.1040022, 40.8997604 ], [ -7.1035566, 40.9024735 ], [ -7.1033606, 40.9039267 ], [ -7.1031205, 40.9057063 ], [ -7.1030933, 40.9063655 ], [ -7.1031587, 40.9070464 ], [ -7.103227, 40.907205 ], [ -7.1032834, 40.9073362 ], [ -7.1038735, 40.9078328 ], [ -7.1046945, 40.9089375 ], [ -7.1049517, 40.9096592 ], [ -7.1055579, 40.9110603 ], [ -7.1057096, 40.9113294 ], [ -7.1055734, 40.9115491 ], [ -7.1029199, 40.9122863 ], [ -7.102044, 40.9129697 ], [ -7.1013735, 40.9137942 ], [ -7.1005013, 40.9143146 ], [ -7.0991128, 40.9152637 ], [ -7.0988363, 40.9156939 ], [ -7.0980989, 40.916627 ], [ -7.0978358, 40.9169745 ], [ -7.0975298, 40.9178317 ], [ -7.0975397, 40.9183062 ], [ -7.0977713, 40.9191962 ], [ -7.097544, 40.9200289 ], [ -7.0967444, 40.921514 ], [ -7.0964144, 40.9221338 ], [ -7.0962613, 40.9228281 ], [ -7.0961946, 40.923383 ], [ -7.0963334, 40.9238975 ], [ -7.0971026, 40.9246693 ], [ -7.0981241, 40.9254125 ], [ -7.0987508, 40.9263338 ], [ -7.0987397, 40.9276105 ], [ -7.0983841, 40.9284821 ], [ -7.0980154, 40.9293858 ], [ -7.097683, 40.9302003 ], [ -7.0977666, 40.9304605 ], [ -7.0979966, 40.9311765 ], [ -7.0976879, 40.9324899 ], [ -7.0978075, 40.9332054 ], [ -7.0973125, 40.9337038 ], [ -7.0972718, 40.9348365 ], [ -7.096566, 40.9358951 ], [ -7.09659, 40.9367493 ], [ -7.0966509, 40.9379788 ], [ -7.0969052, 40.9395867 ], [ -7.0968055, 40.9407016 ], [ -7.096737, 40.9414673 ], [ -7.096241, 40.9433566 ], [ -7.0961577, 40.9436716 ], [ -7.0960977, 40.9438987 ], [ -7.0955991, 40.944794 ], [ -7.0955147, 40.9452342 ], [ -7.0956395, 40.9456296 ], [ -7.0958162, 40.9459628 ], [ -7.0961595, 40.9461743 ], [ -7.0965583, 40.9462283 ], [ -7.0972059, 40.9461586 ], [ -7.097354, 40.9462451 ], [ -7.0975045, 40.9463281 ], [ -7.0979828, 40.9465421 ], [ -7.0988811, 40.9472092 ], [ -7.0992972, 40.9475807 ], [ -7.0995307, 40.9480779 ], [ -7.0996516, 40.9497213 ], [ -7.0993112, 40.9512643 ], [ -7.0993268, 40.951602 ], [ -7.099412, 40.9534453 ], [ -7.0993569, 40.9547509 ], [ -7.0995299, 40.9555971 ], [ -7.1000143, 40.9561771 ], [ -7.1005286, 40.9569978 ], [ -7.1006577, 40.9576206 ], [ -7.100591, 40.9585804 ], [ -7.1001092, 40.9593041 ], [ -7.0998687, 40.9601561 ], [ -7.0997795, 40.9609978 ], [ -7.0998865, 40.962688 ], [ -7.1007245, 40.9660061 ], [ -7.1008521, 40.9674237 ], [ -7.1010952, 40.9701232 ], [ -7.1016869, 40.9712749 ] ] } },
{ "type": "Feature", "properties": { "id": 309044394, "name": "Rio Côa", "waterway": "river" }, "geometry": { "type": "LineString", "coordinates": [ [ -6.9537901, 40.7409776 ], [ -6.9539321, 40.7412306 ], [ -6.9538648, 40.7416611 ], [ -6.9537514, 40.7420038 ], [ -6.9536744, 40.7421093 ], [ -6.9536803, 40.742227 ], [ -6.9538091, 40.742298 ], [ -6.9541167, 40.7423534 ], [ -6.9554086, 40.742677 ], [ -6.9556732, 40.7428379 ], [ -6.9557463, 40.7430092 ], [ -6.9555465, 40.743751 ], [ -6.9559065, 40.745203 ], [ -6.955949, 40.7453367 ], [ -6.9563444, 40.7454779 ], [ -6.956561, 40.7454043 ], [ -6.9567892, 40.7454362 ], [ -6.9569563, 40.7454694 ], [ -6.9571495, 40.7455906 ], [ -6.9571975, 40.7459028 ], [ -6.9568292, 40.7477771 ], [ -6.9570983, 40.7479761 ], [ -6.9588855, 40.7485123 ] ] } },
{ "type": "Feature", "properties": { "id": 380808389, "name": "Rio Côa", "waterway": "river" }, "geometry": { "type": "LineString", "coordinates": [ [ -7.0474559, 40.3037539 ], [ -7.0483096, 40.3043668 ], [ -7.0489114, 40.3048618 ], [ -7.0493405, 40.3053018 ], [ -7.0496653, 40.3058834 ], [ -7.0498102, 40.3062969 ], [ -7.049874, 40.3063942 ], [ -7.0504801, 40.3067922 ], [ -7.0508251, 40.3069934 ], [ -7.0512542, 40.3071261 ], [ -7.0521299, 40.3072543 ], [ -7.0527823, 40.3072963 ], [ -7.0547685, 40.3072853 ], [ -7.0564619, 40.3071791 ], [ -7.0570447, 40.30723 ], [ -7.0574216, 40.307303 ], [ -7.0576826, 40.3073826 ], [ -7.0579523, 40.307502 ], [ -7.0582335, 40.3077209 ], [ -7.0584104, 40.3080813 ], [ -7.0584655, 40.3086451 ], [ -7.0583785, 40.3094268 ], [ -7.0583547, 40.3104296 ], [ -7.0584204, 40.3107486 ], [ -7.0592935, 40.3122991 ], [ -7.0605548, 40.3139396 ], [ -7.0613522, 40.3146604 ], [ -7.0616624, 40.3148284 ], [ -7.0618654, 40.3148881 ], [ -7.0621611, 40.3149257 ], [ -7.0628252, 40.3149744 ], [ -7.0633355, 40.3149898 ], [ -7.0634747, 40.3149655 ], [ -7.0635674, 40.3149257 ], [ -7.0636863, 40.3148284 ], [ -7.0637385, 40.3147466 ], [ -7.0638052, 40.3145963 ], [ -7.0639154, 40.3142116 ], [ -7.0640923, 40.3139772 ], [ -7.0641416, 40.313933 ], [ -7.0642546, 40.3139131 ], [ -7.0645591, 40.3139242 ], [ -7.0654174, 40.314384 ], [ -7.0658842, 40.3146958 ], [ -7.0661423, 40.3148704 ], [ -7.0665076, 40.3151579 ], [ -7.0667222, 40.3154011 ], [ -7.0668295, 40.3156244 ], [ -7.0669078, 40.3158919 ], [ -7.0670295, 40.3161705 ], [ -7.0672586, 40.3164535 ], [ -7.0673688, 40.3165264 ], [ -7.0674732, 40.3165529 ], [ -7.0677689, 40.3165618 ], [ -7.0682068, 40.3165176 ], [ -7.0689259, 40.3164181 ], [ -7.069355, 40.3163053 ], [ -7.0697262, 40.3161749 ], [ -7.0702307, 40.3159251 ], [ -7.0709208, 40.3153524 ], [ -7.0710658, 40.3152706 ], [ -7.0713412, 40.3151048 ], [ -7.0716196, 40.3150341 ], [ -7.0719182, 40.3150097 ], [ -7.0721879, 40.3150274 ], [ -7.0725184, 40.3151114 ], [ -7.0734898, 40.3154165 ], [ -7.073916, 40.3156266 ], [ -7.074177, 40.3158167 ], [ -7.0743684, 40.3160069 ], [ -7.0744496, 40.3161351 ], [ -7.0744642, 40.3162496 ], [ -7.0744786, 40.3163628 ], [ -7.0744641, 40.3164115 ], [ -7.074293, 40.3166878 ], [ -7.0743104, 40.3180364 ], [ -7.0744177, 40.3188633 ], [ -7.0744844, 40.3191463 ], [ -7.0746003, 40.3193563 ], [ -7.0747743, 40.3195309 ], [ -7.0749686, 40.3197012 ], [ -7.075131, 40.3198006 ], [ -7.0755572, 40.3199598 ], [ -7.0761487, 40.3201102 ], [ -7.0765953, 40.320161 ], [ -7.077036, 40.3201765 ], [ -7.0775753, 40.320161 ], [ -7.0783274, 40.32004 ], [ -7.0798332, 40.3199051 ], [ -7.0802855, 40.3197614 ], [ -7.0804885, 40.3196774 ], [ -7.0821036, 40.3193878 ], [ -7.0822051, 40.3193657 ], [ -7.0824805, 40.3193591 ], [ -7.0834287, 40.319474 ], [ -7.0839448, 40.319558 ], [ -7.0844029, 40.3197194 ], [ -7.0846146, 40.319967 ], [ -7.0846233, 40.32025 ], [ -7.0845653, 40.320449 ], [ -7.0843565, 40.3207408 ], [ -7.0840202, 40.3210127 ], [ -7.0838926, 40.3215367 ], [ -7.0836722, 40.3219125 ], [ -7.0834432, 40.3221866 ], [ -7.0826266, 40.3228314 ] ] } },
{ "type": "Feature", "properties": { "id": 380808390, "name": "Rio Côa", "waterway": "river" }, "geometry": { "type": "LineString", "coordinates": [ [ -7.0427006, 40.3061985 ], [ -7.0427325, 40.3061366 ], [ -7.0441591, 40.3045356 ], [ -7.0446317, 40.3042924 ], [ -7.0452986, 40.304142 ], [ -7.0456524, 40.3039187 ], [ -7.0460902, 40.3034698 ], [ -7.0463425, 40.3033238 ], [ -7.0465484, 40.3032641 ], [ -7.0467977, 40.3032686 ], [ -7.0469107, 40.3033205 ], [ -7.0474559, 40.3037539 ] ] } },
{ "type": "Feature", "properties": { "id": 385760888, "name": "Rio Côa", "waterway": "river" }, "geometry": { "type": "LineString", "coordinates": [ [ -6.8925905, 40.2834871 ], [ -6.8933523, 40.2832661 ], [ -6.8941891, 40.2831024 ], [ -6.8946197, 40.2829513 ], [ -6.8948081, 40.28304 ], [ -6.8949485, 40.2831568 ], [ -6.8952125, 40.2831668 ], [ -6.8954766, 40.2831188 ], [ -6.8961418, 40.2830124 ], [ -6.8966246, 40.2828242 ], [ -6.8969142, 40.2826277 ], [ -6.89744, 40.2824477 ], [ -6.8975043, 40.2822594 ], [ -6.8977404, 40.2821039 ], [ -6.8976116, 40.2818665 ], [ -6.8977511, 40.2817274 ], [ -6.8981802, 40.2815719 ], [ -6.8983412, 40.28131 ], [ -6.8984914, 40.2809662 ], [ -6.8986018, 40.2808748 ], [ -6.8988669, 40.2806552 ], [ -6.8990707, 40.2804588 ], [ -6.8992531, 40.2802132 ], [ -6.8994141, 40.2799595 ], [ -6.8996608, 40.2787399 ], [ -6.8995857, 40.2785762 ], [ -6.8993711, 40.2783552 ], [ -6.8992317, 40.2781751 ], [ -6.8993282, 40.2779459 ], [ -6.8998539, 40.2770783 ], [ -6.9014204, 40.2761943 ], [ -6.9021928, 40.2758341 ], [ -6.9029546, 40.2756049 ], [ -6.9035983, 40.2753348 ], [ -6.9041133, 40.2750156 ], [ -6.9043386, 40.274549 ], [ -6.9044566, 40.2741561 ], [ -6.9046605, 40.2737795 ], [ -6.9049479, 40.2734454 ], [ -6.9053686, 40.273272 ], [ -6.9057977, 40.2732802 ], [ -6.9062805, 40.2734439 ], [ -6.9071925, 40.2734439 ], [ -6.9093812, 40.273976 ], [ -6.9097781, 40.2740006 ], [ -6.9101429, 40.2738205 ], [ -6.9104648, 40.2735667 ], [ -6.9107223, 40.2733621 ], [ -6.9110227, 40.2732311 ], [ -6.9114625, 40.2731574 ], [ -6.9119239, 40.2732966 ], [ -6.9131792, 40.2739105 ], [ -6.9139087, 40.2742298 ], [ -6.9147885, 40.2744917 ], [ -6.9153786, 40.2746718 ], [ -6.9158185, 40.2748682 ], [ -6.9161403, 40.2750729 ], [ -6.9168913, 40.2752366 ], [ -6.9177604, 40.2752857 ], [ -6.9188333, 40.2754985 ], [ -6.9198418, 40.2758587 ], [ -6.9207215, 40.2759242 ], [ -6.9216013, 40.2761861 ], [ -6.9222236, 40.2765463 ], [ -6.9232321, 40.2767427 ], [ -6.9238393, 40.2770565 ], [ -6.9238831, 40.2771041 ], [ -6.9238973, 40.2771369 ], [ -6.9238973, 40.2777741 ], [ -6.9236398, 40.2784452 ], [ -6.9235969, 40.2788709 ], [ -6.9237685, 40.2791983 ], [ -6.9243479, 40.2793947 ], [ -6.9250345, 40.2797221 ], [ -6.9256139, 40.2800331 ], [ -6.9259143, 40.2805733 ], [ -6.926043, 40.281179 ], [ -6.9261074, 40.2817847 ], [ -6.9264078, 40.2821776 ], [ -6.9269657, 40.282374 ], [ -6.927824, 40.2824722 ], [ -6.9285536, 40.2825377 ], [ -6.9293046, 40.2824395 ], [ -6.929841, 40.2822103 ], [ -6.9303346, 40.2819484 ], [ -6.9307852, 40.2817028 ], [ -6.9312787, 40.281621 ], [ -6.9316723, 40.2817035 ], [ -6.9317937, 40.2818338 ], [ -6.9319455, 40.2821153 ], [ -6.9317891, 40.2825321 ], [ -6.9315147, 40.282996 ], [ -6.9315147, 40.2837163 ], [ -6.9315791, 40.2843547 ], [ -6.9317625, 40.2846028 ], [ -6.9321848, 40.2848373 ], [ -6.9328334, 40.2850211 ], [ -6.9349051, 40.2853204 ], [ -6.9354415, 40.2855005 ], [ -6.9357634, 40.285746 ], [ -6.9359779, 40.2862043 ], [ -6.935699, 40.2867117 ], [ -6.9351411, 40.2870882 ], [ -6.9348836, 40.2873665 ], [ -6.9348621, 40.287792 ], [ -6.9350338, 40.2881521 ], [ -6.9352698, 40.2885286 ], [ -6.935699, 40.2887086 ], [ -6.9361358, 40.2888348 ], [ -6.9363098, 40.2890764 ], [ -6.9364929, 40.2893306 ], [ -6.9369864, 40.289527 ], [ -6.9376731, 40.2896252 ], [ -6.9383812, 40.2897234 ], [ -6.9390249, 40.2899198 ], [ -6.9398403, 40.290149 ], [ -6.9405913, 40.2903945 ], [ -6.9411492, 40.2906236 ], [ -6.9417192, 40.2907153 ], [ -6.9419553, 40.2907059 ], [ -6.9420542, 40.290702 ], [ -6.9423421, 40.2905772 ], [ -6.9424765, 40.2903719 ], [ -6.9424464, 40.2901073 ], [ -6.9424367, 40.2899526 ], [ -6.9425716, 40.2897653 ], [ -6.9427586, 40.2896416 ], [ -6.9433379, 40.2892815 ], [ -6.9442391, 40.2888723 ], [ -6.944936, 40.2887237 ], [ -6.9454622, 40.2882831 ], [ -6.9462776, 40.2878411 ], [ -6.9468051, 40.2877112 ], [ -6.947093, 40.2878411 ], [ -6.9473934, 40.2881521 ], [ -6.9475865, 40.2885777 ], [ -6.9478869, 40.2892815 ], [ -6.948123, 40.2899526 ], [ -6.9483805, 40.2903127 ], [ -6.9487882, 40.2905909 ], [ -6.949625, 40.2905582 ], [ -6.9519854, 40.2903781 ], [ -6.9527149, 40.2903127 ], [ -6.9533157, 40.2905418 ], [ -6.9537878, 40.2910001 ], [ -6.954217, 40.2914747 ], [ -6.9547534, 40.2919167 ], [ -6.955483, 40.2925059 ], [ -6.9562125, 40.2926041 ], [ -6.9568133, 40.2926041 ], [ -6.9572425, 40.292244 ], [ -6.9574785, 40.2918676 ], [ -6.9576931, 40.2914911 ], [ -6.9580364, 40.2910656 ], [ -6.9584012, 40.2909674 ], [ -6.9585468, 40.2907688 ], [ -6.9587186, 40.290866 ], [ -6.959002, 40.2911638 ], [ -6.9594097, 40.2916384 ], [ -6.9601178, 40.2920967 ], [ -6.9607615, 40.2924568 ], [ -6.9612765, 40.2924568 ], [ -6.961813, 40.2922604 ], [ -6.9621134, 40.2920476 ], [ -6.9623065, 40.2918512 ], [ -6.962648, 40.2916884 ], [ -6.9628215, 40.2916057 ], [ -6.9634438, 40.2916875 ], [ -6.9641519, 40.2919985 ], [ -6.9650531, 40.2921622 ], [ -6.9657826, 40.2921622 ], [ -6.9664935, 40.2920992 ], [ -6.9666845, 40.2921928 ], [ -6.9667621, 40.2923322 ], [ -6.9666839, 40.2926532 ], [ -6.966598, 40.2932751 ], [ -6.9664069, 40.2939187 ], [ -6.9664685, 40.2941998 ], [ -6.9666409, 40.2944699 ], [ -6.9670486, 40.2947317 ], [ -6.9675924, 40.2953013 ] ] } },
{ "type": "Feature", "properties": { "id": 694242777, "name": "Rio Côa", "waterway": "river" }, "geometry": { "type": "LineString", "coordinates": [ [ -6.9871558, 40.3132477 ], [ -6.9873898, 40.3133065 ], [ -6.9884929, 40.3132835 ] ] } },
{ "type": "Feature", "properties": { "id": 694242778, "name": "Rio Côa", "waterway": "river" }, "geometry": { "type": "LineString", "coordinates": [ [ -6.9675924, 40.2953013 ], [ -6.9682098, 40.2958863 ], [ -6.9682862, 40.2960538 ], [ -6.9685344, 40.2962819 ], [ -6.9689202, 40.2964582 ], [ -6.9692887, 40.2966266 ], [ -6.9704493, 40.2974989 ], [ -6.9704504, 40.2978015 ], [ -6.9700907, 40.2981607 ], [ -6.9696802, 40.2983476 ], [ -6.9676433, 40.2989617 ], [ -6.9661316, 40.2995588 ], [ -6.9657534, 40.2998951 ], [ -6.965688, 40.3001253 ], [ -6.9657051, 40.3003525 ], [ -6.9657447, 40.3006826 ], [ -6.9659661, 40.3009739 ], [ -6.9663257, 40.3012676 ], [ -6.966889, 40.3020394 ], [ -6.9674874, 40.302554 ], [ -6.9679648, 40.302821 ], [ -6.9683549, 40.3028972 ], [ -6.9686586, 40.3029569 ], [ -6.9690142, 40.3033353 ], [ -6.9690695, 40.3040174 ], [ -6.9690461, 40.30469 ], [ -6.9688105, 40.3052487 ], [ -6.9676014, 40.306595 ], [ -6.9674019, 40.3069845 ], [ -6.9674753, 40.3072368 ], [ -6.9677499, 40.3073947 ], [ -6.9682243, 40.3072872 ], [ -6.9682495, 40.3072815 ], [ -6.9689651, 40.3071202 ], [ -6.9693792, 40.3072506 ], [ -6.9696021, 40.3074568 ], [ -6.9696298, 40.3079576 ], [ -6.9695007, 40.3085033 ], [ -6.9692541, 40.3089334 ], [ -6.9689527, 40.3092879 ], [ -6.9686421, 40.3099834 ], [ -6.9685587, 40.310516 ], [ -6.9685371, 40.3107557 ], [ -6.9686983, 40.3109336 ], [ -6.9688883, 40.3109889 ], [ -6.9691318, 40.3109673 ], [ -6.9694056, 40.3108833 ], [ -6.9705389, 40.3105836 ], [ -6.9712294, 40.3105874 ], [ -6.9715956, 40.3107366 ], [ -6.9720278, 40.3112612 ], [ -6.9729202, 40.312087 ], [ -6.9738713, 40.3128528 ], [ -6.9766385, 40.3143145 ], [ -6.9772585, 40.314615 ], [ -6.9778783, 40.3148287 ], [ -6.9790423, 40.3149639 ], [ -6.9796331, 40.3149462 ], [ -6.9802379, 40.3150209 ], [ -6.9811563, 40.3153702 ], [ -6.9812681, 40.3154031 ], [ -6.9815161, 40.315476 ], [ -6.9820825, 40.3156426 ], [ -6.9832154, 40.315491 ], [ -6.9837799, 40.3153393 ], [ -6.9841607, 40.3151161 ], [ -6.9842143, 40.3149462 ], [ -6.984104, 40.3146884 ], [ -6.9841236, 40.3143941 ], [ -6.9842315, 40.3141041 ], [ -6.9845045, 40.3138337 ], [ -6.9850335, 40.3133927 ], [ -6.9857232, 40.3130847 ], [ -6.9862881, 40.3130008 ], [ -6.9865182, 40.3130142 ], [ -6.9871558, 40.3132477 ] ] } },
{ "type": "Feature", "properties": { "id": 1232023146, "name": "Rio Côa", "waterway": "river" }, "geometry": { "type": "LineString", "coordinates": [ [ -7.1106667, 41.0588124 ], [ -7.1103893, 41.0593292 ], [ -7.1100565, 41.0598416 ] ] } },
{ "type": "Feature", "properties": { "id": 1232023147, "name": "Rio Côa", "waterway": "river" }, "geometry": { "type": "LineString", "coordinates": [ [ -7.1100565, 41.0598416 ], [ -7.1099084, 41.0600711 ], [ -7.1096073, 41.0606018 ], [ -7.1090937, 41.060971 ], [ -7.1075322, 41.0621482 ], [ -7.1071404, 41.062691 ], [ -7.1064967, 41.0634979 ], [ -7.1059817, 41.0641613 ], [ -7.1049061, 41.0650329 ], [ -7.1047498, 41.0657616 ], [ -7.1048337, 41.0664525 ], [ -7.1052736, 41.0669682 ], [ -7.1068145, 41.068674 ], [ -7.1076709, 41.0697115 ], [ -7.1078137, 41.0705191 ], [ -7.1078217, 41.0713644 ], [ -7.1081482, 41.0726689 ], [ -7.1081458, 41.0741196 ], [ -7.1081402, 41.0744035 ], [ -7.1079164, 41.0750177 ], [ -7.1075087, 41.0771529 ], [ -7.1062642, 41.0794821 ], [ -7.1040487, 41.0818261 ], [ -7.1034139, 41.0825242 ] ] } },
{ "type": "Feature", "properties": { "id": 1433859246, "name": "Rio Côa", "waterway": "river" }, "geometry": { "type": "LineString", "coordinates": [ [ -7.105342, 40.9946196 ], [ -7.1054668, 40.9947594 ], [ -7.1055303, 40.9949684 ], [ -7.1051119, 40.9962894 ], [ -7.1046892, 40.9963748 ], [ -7.1046031, 40.9965125 ], [ -7.1045838, 40.9965434 ], [ -7.1045326, 40.9966755 ] ] } },
{ "type": "Feature", "properties": { "id": 1433859247, "name": "Rio Côa", "waterway": "river" }, "geometry": { "type": "LineString", "coordinates": [ [ -7.1053478, 40.9943791 ], [ -7.105342, 40.9946196 ] ] } },
{ "type": "Feature", "properties": { "id": 1434608546, "name": "Rio Côa", "waterway": "river" }, "geometry": { "type": "LineString", "coordinates": [ [ -7.0926342, 40.3355957 ], [ -7.092811, 40.3358724 ], [ -7.0931809, 40.3363542 ] ] } },
{ "type": "Feature", "properties": { "id": 1434608548, "name": "Rio Côa", "waterway": "river" }, "geometry": { "type": "LineString", "coordinates": [ [ -7.0911533, 40.3331502 ], [ -7.0913922, 40.333641 ] ] } },
{ "type": "Feature", "properties": { "id": 1434608552, "name": "Rio Côa", "waterway": "river" }, "geometry": { "type": "LineString", "coordinates": [ [ -7.0826266, 40.3228314 ], [ -7.0890474, 40.3283003 ], [ -7.0911533, 40.3331502 ] ] } },
{ "type": "Feature", "properties": { "id": 1434831300, "name": "Rio Côa", "waterway": "river" }, "geometry": { "type": "LineString", "coordinates": [ [ -7.0185686, 40.8028184 ], [ -7.0184973, 40.8028744 ] ] } },
{ "type": "Feature", "properties": { "id": 1434831301, "name": "Rio Côa", "waterway": "river" }, "geometry": { "type": "LineString", "coordinates": [ [ -7.0188486, 40.8025603 ], [ -7.0187003, 40.802708 ] ] } },
{ "type": "Feature", "properties": { "id": 1434831305, "name": "Rio Côa", "waterway": "river" }, "geometry": { "type": "LineString", "coordinates": [ [ -6.9588855, 40.7485123 ], [ -6.9589864, 40.7485129 ], [ -6.9597026, 40.7485168 ], [ -6.9602928, 40.7485711 ], [ -6.9612024, 40.7487767 ], [ -6.9612228, 40.7493617 ], [ -6.9612714, 40.7495253 ], [ -6.9614675, 40.7496556 ], [ -6.9632087, 40.750638 ], [ -6.9650994, 40.7512288 ], [ -6.9662654, 40.7515932 ], [ -6.9690335, 40.7520605 ], [ -6.9703209, 40.7526091 ], [ -6.971384, 40.752873 ], [ -6.9728807, 40.7540556 ], [ -6.9730195, 40.7546508 ], [ -6.9729468, 40.7552952 ], [ -6.9719044, 40.7573308 ], [ -6.9716728, 40.7582636 ], [ -6.9724087, 40.7602544 ], [ -6.9729858, 40.7606972 ], [ -6.9733304, 40.7609616 ], [ -6.9733867, 40.7617458 ], [ -6.9740599, 40.7622354 ], [ -6.974069, 40.7629503 ], [ -6.9759563, 40.7635336 ], [ -6.9765714, 40.7635984 ], [ -6.9767536, 40.7636721 ], [ -6.9773403, 40.7639094 ], [ -6.9774883, 40.7640227 ], [ -6.9787038, 40.7649534 ], [ -6.9790689, 40.7650312 ], [ -6.9805856, 40.7653546 ], [ -6.9807955, 40.7653994 ], [ -6.9822112, 40.7657012 ], [ -6.9835827, 40.7662027 ], [ -6.9838868, 40.766333 ], [ -6.9839982, 40.7664924 ], [ -6.9840441, 40.7666802 ], [ -6.9839308, 40.7673655 ], [ -6.9837615, 40.7677042 ], [ -6.9838795, 40.7679906 ], [ -6.983741, 40.7686039 ], [ -6.9841772, 40.7700768 ], [ -6.9838259, 40.7716714 ], [ -6.9839261, 40.772701 ], [ -6.9845769, 40.7738225 ], [ -6.9848102, 40.774503 ], [ -6.9860316, 40.7763653 ], [ -6.9866234, 40.7768022 ], [ -6.9872269, 40.7769444 ], [ -6.9876839, 40.7769503 ], [ -6.9881013, 40.7772511 ], [ -6.9885394, 40.7782874 ], [ -6.9886115, 40.7792103 ], [ -6.9876436, 40.7799684 ], [ -6.9872564, 40.7808522 ], [ -6.9873208, 40.7814818 ], [ -6.987255, 40.7828005 ], [ -6.9875488, 40.7830416 ], [ -6.9890159, 40.783072 ], [ -6.9899631, 40.7832729 ], [ -6.991468, 40.7838028 ], [ -6.9923633, 40.784118 ], [ -6.9932245, 40.7841251 ], [ -6.995668, 40.7837693 ], [ -6.997492, 40.783706 ], [ -7.0004699, 40.7844203 ], [ -7.0041972, 40.7865164 ], [ -7.0053074, 40.7869795 ], [ -7.0072201, 40.7877774 ], [ -7.0077367, 40.7879929 ], [ -7.0081992, 40.7878433 ], [ -7.0089091, 40.7869906 ], [ -7.009626, 40.7866667 ], [ -7.0104146, 40.7865408 ], [ -7.0111281, 40.7865733 ], [ -7.0118371, 40.7867111 ], [ -7.0123991, 40.7870485 ], [ -7.012961, 40.7873859 ], [ -7.0130335, 40.7881416 ], [ -7.0130244, 40.7882901 ], [ -7.0129559, 40.7894015 ], [ -7.0136136, 40.7905599 ], [ -7.0147368, 40.7916483 ], [ -7.0142728, 40.7962827 ], [ -7.0151782, 40.7981642 ], [ -7.015238, 40.7983073 ], [ -7.0155345, 40.7990751 ], [ -7.0163488, 40.7999165 ], [ -7.0188003, 40.8005638 ], [ -7.0194795, 40.8013418 ], [ -7.0194322, 40.8019274 ], [ -7.0188486, 40.8025603 ] ] } },
{ "type": "Feature", "properties": { "id": 1452866365, "name": "Rio Côa", "waterway": "river" }, "geometry": { "type": "LineString", "coordinates": [ [ -6.8924953, 40.2835228 ], [ -6.8925905, 40.2834871 ] ] } },
{ "type": "Feature", "properties": { "id": 1452866366, "name": "Rio Côa", "waterway": "river" }, "geometry": { "type": "LineString", "coordinates": [ [ -6.8899278, 40.2867151 ], [ -6.8900523, 40.2866157 ], [ -6.8901681, 40.2866024 ], [ -6.8902767, 40.286562 ], [ -6.8904848, 40.2864716 ], [ -6.890605, 40.2863931 ], [ -6.8906709, 40.2863155 ], [ -6.8907154, 40.2861943 ], [ -6.8907291, 40.2858975 ], [ -6.8907784, 40.2856614 ], [ -6.8907661, 40.2855192 ], [ -6.8907074, 40.2854193 ], [ -6.8904662, 40.2851649 ], [ -6.8904448, 40.2847639 ], [ -6.8906379, 40.2845429 ], [ -6.8908739, 40.2842728 ], [ -6.891464, 40.2839291 ], [ -6.891979, 40.2837163 ], [ -6.8924953, 40.2835228 ] ] } }
]
}
